LicenseNumber,FacilityName,DBA,FacilityType,City,county,fips,ZipCode,DateUpdated,med_1
402-00001,ALLGREENS LLC,,MMC,Denver,Denver,08031,80204,2021-06-01,1
402-00002,ALTERNATIVE MEDICINE ON CAPITOL HILL LLC ,,MMC,Denver,Denver,08031,80218,2021-06-01,1
402-00005,P2C3 LLC,THE SECRET STASH,MMC,Colorado Springs,El Paso,08041,80904,2021-06-01,1
402-00008,HERBAL OUTFITTERS LLC,THE GREEN JOINT,MMC,Rifle,Garfield,08045,81650,2021-06-01,1
402-00011,JGB VENTURES LLC,DANK ,MMC,Denver,Denver,08031,80207,2021-06-01,1
402-00012,GM 2280 LLC ,,MMC,Denver,Denver,08031,80231,2021-06-01,1
402-00031,NATURAL MYSTIC CANNABIS CAREGIVERS LLC,,MMC,Colorado Springs,El Paso,08041,80903,2021-06-01,1
402-00018,GREEN KIWI 1 LLC,LIVWELL,MMC,Denver,Denver,08031,80207,2021-06-01,1
402-00017,1617 WAZEE STREET LLC,LODO WELLNESS CENTER,MMC,Denver,Denver,08031,80202,2021-06-01,1
402-00053,HOLLISTER & BLACKSMITH INC,NATURALEAF,MMC,Colorado Springs,El Paso,08041,80918,2021-06-01,1
402-00039,SUMMIT WELLNESS,DENREC DENVER RECREATIONAL DISPENSARY,MMC,Denver,Denver,08031,80223,2021-06-01,1
402-00043,CURE MEDICAL PHARM INC,RIVERROCK,MMC,Denver,Denver,08031,80204,2021-06-01,1
402-00024,THE PURPLE DRAGON LLC,,MMC,Denver,Denver,08031,80211,2021-06-01,1
402-00037,SOUTHWEST ALTERNATIVE CARE LLC,KAYA,MMC,Basalt,Eagle,08037,81621,2021-06-01,1
402-00080,TUMBLEWEED STEAMBOAT LLC,RK ENTERPRISES ,MMC,Steamboat Springs,Routt,08107,80487,2021-06-01,1
402-00075,METRO CANNABIS INC,SILVER STEM FINE CANNABIS,MMC,Denver,Denver,08031,80220,2021-06-01,1
402-00049,COMPASSIONATE CARE GIVERS INC,ROCKY MOUNTAIN HIGH,MMC,Denver,Denver,08031,80223,2021-06-01,1
402-00050,COMPASSIONATE CARE GIVERS INC,CANNABIS STATION,MMC,Denver,Denver,08031,80202,2021-06-01,1
402-00051,COMPASSIONATE CARE GIVERS INC,ROCKY MOUNTAIN HIGH,MMC,Denver,Denver,08031,80202,2021-06-01,1
402-00088,FUTUREVISION LTD,MEDICINE MAN DENVER,MMC,Denver,Denver,08031,80239,2021-06-01,1
402-00087,GREEN CROSS LLC,GREEN CROSS OF CHERRY CREEK,MMC,Denver,Denver,08031,80224,2021-06-01,1
402-00058,THE GREEN HOUSE INC,,MMC,Colorado Springs,El Paso,08041,80905,2021-06-01,1
402-00059,SECOND AVENUE LLC,LUSH,MMC,Denver,Denver,08031,80223,2021-06-01,1
402-00060,OG MEDICINALS LLC,,MMC,Denver,Denver,08031,80239,2021-06-01,1
402-00063,QUALITY CHOICE ALTERNATIVE CARE CENTER LLC,QUALITY CHOICE,MMC,Colorado Springs,El Paso,08041,80909,2021-06-01,1
402-00085,A CUT OFF THE TOP MEDICAL MARIJUANA LLC,,MMC,Denver,Denver,08031,80204,2021-06-01,1
402-00110,CANNABICARE INC,THE CARE,MMC,Colorado Springs,El Paso,08041,80915,2021-06-01,1
402-00123,PIKES PEAK CANNABIS CAREGIVERS LLC,PIKES PEAK CAREGIVERS ,MMC,Colorado Springs,El Paso,08041,80910,2021-06-01,1
402-00125,BLUEGRASS WELLNESS INC,BRIARGATE WELLNESS CENTER,MMC,Colorado Springs,El Paso,08041,80918,2021-06-01,1
402-00090,ORIGINAL CANNABIS GROWERS LLC,,MMC,Colorado Springs,El Paso,08041,80909,2021-06-01,1
402-00091,ALTERNATIVE MEDICAL REMEDIES LLC,ALTERNATIVE MEDICAL REMEDIES,MMC,Penrose,Fremont,08043,81240,2021-06-01,1
402-00103,THE HEALING CANNA LLC,,MMC,Colorado Springs,El Paso,08041,80905,2021-06-01,1
402-00116,1022 S ROYER LLC,HIGHTOPS INC,MMC,Colorado Springs,El Paso,08041,80903,2021-06-01,1
402-00069,MARI MEDS INC,MARI MEDS,MMC,Colorado Springs,El Paso,08041,80903,2021-06-01,1
402-00157,JMC ENTERPRISES INC,FREMONT COUNTY CANNABIS,MMC,Canon City,Fremont,08043,81212,2021-06-01,1
402-00096,GAS AND GRASS LLC,ROLLUP,MMC,Denver,Denver,08031,80216,2021-06-01,1
402-00097,COLORADO ALTERNATIVE HEALTH CARE LTD,PALISADES HEALTH CARE INC,MMC,Palisade,Mesa,08077,81526,2021-06-01,1
402-00065,BUD BUM LLC,BUDCARDI,MMC,Denver,Denver,08031,80223,2021-06-01,1
402-00165,CONCENTRATE LLC,WOLF PAC CANNABIS,MMC,Denver,Denver,08031,80222,2021-06-01,1
402-00166,CORRIDOR 70 LLC,EVERBLOOM,MMC,Denver,Denver,08031,80216,2021-06-01,1
402-00066,GREEN AROUND YOU MERGERCO LLC,GOLDEN MEDS,MMC,Denver,Denver,08031,80224,2021-06-01,1
402-00162,WTJ FAMILY ENTERPRISES LLC,WTJ MMJ SUPPLY,MMC,Colorado Springs,El Paso,08041,80909,2021-06-01,1
402-00170,SBUD LLC,STARBUDS,MMC,Denver,Denver,08031,80210,2021-06-01,1
402-00174,SILVERPEAK CORP,THE DAB BY SILVERPEAK - DOWNTOWN,MMC,Denver,Denver,08031,80205,2021-06-01,1
402-00179,HIGH COUNTRY SUPPLY LLC,COLORADO HARVEST COMPANY,MMC,Denver,Denver,08031,80223,2021-06-01,1
402-00180,CRICECANN LLC,CALLIE'S,MMC,Denver,Denver,08031,80204,2021-06-01,1
402-00186,GREEN PHARM LLC,GREEN PHARM,MMC,Colorado Springs,El Paso,08041,80909,2021-06-01,1
402-00150,RIVERROCK LLC,RIVERROCK,MMC,Denver,Denver,08031,80216,2021-06-01,1
402-00140,GL INDUSTRIAL,GROW LIFE INC,MMC,Colorado Springs,El Paso,08041,80907,2021-06-01,1
402-00145,THIRD DAY APOTHECARY MC LLC,THIRD DAY,MMC,Colorado Springs,El Paso,08041,80918,2021-06-01,1
402-00146,CHOICE ORGANICS INC,,MMC,Fort Collins,Larimer,08069,80524,2021-06-01,1
402-00192,MILE HIGH WELLNESS II LLC,MILE HIGH WELLNESS-GREEN STREET,MMC,Denver,Denver,08031,80223,2021-06-01,1
402-00193,THE GIVING TREE OF DENVER LLC,,MMC,Denver,Denver,08031,80211,2021-06-01,1
402-00204,CORRIDOR 70 LLC,EVERBLOOM,MMC,Denver,Denver,08031,80216,2021-06-01,1
402-00206,BBM ENTERPRISES LLC,THE BUD DEPOT,MMC,Lyons,Boulder,08013,80540,2021-06-01,1
402-00207,GREENER PASTURE COMPASSION CENTER LLC,VERDE NATURAL,MMC,Denver,Denver,08031,80220,2021-06-01,1
402-00209,VERTICAL INVESTMENT GROUP LLC,STELLAR CANNABIS CO,MMC,Lakewood,Jefferson,08059,80232,2021-06-01,1
402-00211,COLORADO CANNABIS COMPANY LLC,PURE MARIJUANA DISPENSARY,MMC,Edgewater,Jefferson,08059,80214,2021-06-01,1
402-00216,BOBBY BROWN BEST BUDS LLC,BOBBY BROWN BEST BUDS,MMC,Colorado Springs,El Paso,08041,80903,2021-06-01,1
402-00228,TZ FINANCIAL LLC,HIGH COUNTRY HEALING,MMC,Silverthorne,Summit,08117,80498,2021-06-01,1
402-00232,TRICHOME HEALTH CONSULTANTS INC,TRICHOME HEALTH CONSULTANTS,MMC,Colorado Springs,El Paso,08041,80904,2021-06-01,1
402-00241,BUDDIES WELLNESS LLC,LA BODEGA,MMC,Denver,Denver,08031,80223,2021-06-01,1
402-00242,HIGH MOUNTAIN MEDZ LLC,LEVITY WELLNESS,MMC,Colorado Springs,El Paso,08041,80907,2021-06-01,1
402-00243,ASPEN FOREST LLC,MR. G,MMC,Denver,Denver,08031,80239,2021-06-01,1
402-00237,WESTSIDE WELLNESS CENTER LLC,MAGGIES FARM,MMC,Colorado Springs,El Paso,08041,80907,2021-06-01,1
402-00240,LIGHTSHADE LABS LLC,LIGHTSHADE,MMC,Denver,Denver,08031,80222,2021-06-01,1
402-00251,GOLDEN ALTERNATIVE MEDICINE LLC,,MMC,Golden,Jefferson,08059,80401,2021-06-01,1
402-00247,NATIONAL GREEN SOURCE LLC,THE GREEN SOURCE,MMC,Colorado Springs,El Paso,08041,80909,2021-06-01,1
402-00248,2306 N POWERS LLC,HIGHTOPS,MMC,Colorado Springs,El Paso,08041,80915,2021-06-01,1
402-00262,DISCOUNT MEDICAL MARIJUANA LLC,HIGH LEVEL HEALTH,MMC,Denver,Denver,08031,80206,2021-06-01,1
402-00263,DISCOUNT MEDICAL MARIJUANA LLC,HIGH LEVEL HEALTH,MMC,Denver,Denver,08031,80203,2021-06-01,1
402-00265,TREATMENTS UNLIMITED LLC,ALTITUDE EAST,MMC,Denver,Denver,08031,80224,2021-06-01,1
402-00260,PIONEER INTERESTS SHERIDAN LLC,LOVA EDGEWATER,MMC,Edgewater,Jefferson,08059,80214,2021-06-01,1
402-00286,PI NORTH SHERIDAN LLC,,MMC,Denver,Jefferson,08059,80226,2021-06-01,1
402-00288,PI ARAPAHOE LLC,LOVA ARAPAHOE,MMC,Denver,Denver,08031,80205,2021-06-01,1
402-00272,CANNA MEDS WELLNESS CENTER LLC,CANNA MEDS WELLNESS CENTER,MMC,Colorado Springs,El Paso,08041,80909,2021-06-01,1
402-00294,LITTLE BROWN HOUSE DISPENSARY LLC,LITTLE BROWN HOUSE ,MMC,Denver,Denver,08031,80210,2021-06-01,1
402-00301,DP RETAIL 115 LLC,GREEN DRAGON,MMC,Denver,Denver,08031,80206,2021-06-01,1
402-00299,GM 4401 LLC,GOLDEN MEDS,MMC,Denver,Denver,08031,80212,2021-06-01,1
402-00304,MILE HIGH DISPENSARY LLC,MILE HIGH DISPENSARY,MMC,Denver,Jefferson,08059,80232,2021-06-01,1
402-00292,NATIONAL GREEN SOURCE LLC,THE GREEN SOURCE,MMC,Colorado Springs,El Paso,08041,80905,2021-06-01,1
402-00346,PURE MEDICAL LLC,PURE MEDICAL,MMC,Colorado Springs,El Paso,08041,80920,2021-06-01,1
402-00347,PURE MEDICAL LLC,PURE MEDICAL,MMC,Colorado Springs,El Paso,08041,80919,2021-06-01,1
402-00330,JOIS LLC,SILVER STEM FINE CANNABIS,MMC,Denver,Denver,08031,80236,2021-06-01,1
402-00326,CPM LAKEWOOD LLC,AJOYA MEDICAL CANNABIS,MMC,Lakewood,Jefferson,08059,80215,2021-06-01,1
402-00325,COMPASSIONATE PAIN MANAGEMENT LLC,AJOYA,MMC,Louisville,Boulder,08013,80027,2021-06-01,1
402-00324,UNIQUEITMINDS INC,CHRONORADO ,MMC,Denver,Denver,08031,80224,2021-06-01,1
402-00323,D & D CONSULTING INC,KAYA CANNABIS,MMC,Lakewood,Jefferson,08059,80228,2021-06-01,1
402-00306,ABUNDANT HEALTH DENVER LLC,HERBAN UNDERGROUND,MMC,Denver,Denver,08031,80203,2021-06-01,1
402-00349,ERINCARE LLC,THE TREEHOUSE,MMC,Colorado Springs,El Paso,08041,80907,2021-06-01,1
402-00317,LOTUS MEDICAL LLC,,MMC,Denver,Denver,08031,80207,2021-06-01,1
402-00351,MC STRATEGIC VENTURES LLC,JADE KOLA,MMC,Colorado Springs,El Paso,08041,80910,2021-06-01,1
402-00352,PND LLC,A CUT ABOVE ,MMC,Colorado Springs,El Paso,08041,80907,2021-06-01,1
402-00376,GM BROADWAY LLC,GOLDEN MEDS,MMC,Denver,Denver,08031,80219,2021-06-01,1
402-00377,SOFA KING MEDICINAL WELLNESS PRODUCTS LLC,SKM,MMC,Dumont,Clear Creek,08019,80436,2021-06-01,1
402-00386,SOLACE MEDS OF WHEAT RIDGE LLC,,MMC,Wheat Ridge,Jefferson,08059,80033,2021-06-01,1
402-00385,MEDICAL MJ SUPPLY LLC,BEST COLORADO MEDS.ORG,MMC,Wheat Ridge,Jefferson,08059,80033,2021-06-01,1
402-00389,NUVUE PHARMA LLC,,MMC,Colorado Springs,El Paso,08041,80909,2021-06-01,1
402-00390,AJC INDUSTRIES LLC,TWEEDLEAF,MMC,Colorado Springs,El Paso,08041,80904,2021-06-01,1
402-00396,MOUNTAIN ANNIES LLC,MEDICINE MAN OF CORTEZ,MMC,Cortez,Montezuma,08083,81321,2021-06-01,1
402-00406,KIND THERAPEUTICS INC,DABARADO,MMC,Colorado Springs,El Paso,08041,80919,2021-06-01,1
402-00409,DELTA-9 DELIGHTS LLC,REEFER MADNESS,MMC,Denver,Denver,08031,80216,2021-06-01,1
402-00410,ZENGOLDS LLC,,MMC,Longmont,Boulder,08013,80503,2021-06-01,1
402-00403,RD INDUSTRIES II LLC,HOUSE OF DANKNESS,MMC,Denver,Denver,08031,80239,2021-06-01,1
402-00399,COLORADO CANNABIS SERVICES LLC,GREEN CROSS CAREGIVERS,MMC,Denver,Denver,08031,80231,2021-06-01,1
402-00401,BEST BUDZ LLC,BEST BUDZ,MMC,Colorado Springs,El Paso,08041,80918,2021-06-01,1
402-00405,LIGHTSHADE LABS LLC,LIGHTSHADE,MMC,Denver,Arapahoe,08005,80247,2021-06-01,1
402-00375,2251SB LLC,APOTHECARY FARMS,MMC,Denver,Denver,08031,80210,2021-06-01,1
402-00842,SOLACE MEDS LLC,,MMC,Fort Collins,Larimer,08069,80525,2021-06-01,1
402-00998,DENVER PATIENTS GROUP LLC,LIVWELL,MMC,Denver,Denver,08031,80205,2021-06-01,1
402-00041,HG LTD,HIGHER GRADE,MMC,Denver,Denver,08031,80211,2021-06-01,1
402-00841,KIND CARE OF COLORADO LLC,KIND CARE OF COLORADO,MMC,Fort Collins,Larimer,08069,80525,2021-06-01,1
402-00135,4625 E COLFAX LLC,THE CLINIC ON COLFAX,MMC,Denver,Denver,08031,80220,2021-06-01,1
402-00137,HIGHLANDS WELLNESS CENTER LLC,THE CLINIC HIGHLANDS,MMC,Denver,Denver,08031,80211,2021-06-01,1
402-00938,DENCO LLC,,MMC,Pueblo West,Pueblo,08101,81007,2021-06-01,1
402-01012,COLORADO CANNABIS COMPANY LLC,PURE MARIJUANA DISPENSARY,MMC,Denver,Denver,08031,80204,2021-06-01,1
402-00981,GREEN KIWI 2 LLC,LIVWELL,MMC,Denver,Denver,08031,80203,2021-06-01,1
402-00898,LGK LLC,STRAWBERRY FIELDS,MMC,Denver,Denver,08031,80231,2021-06-01,1
402-00857,DENCO LLC,,MMC,Denver,Denver,08031,80216,2021-06-01,1
402-00424,NATURES KISS CANNABIS SERVICES HEALTH & WELLNESS LLC,NATURES KISS,MMC,Englewood,Arapahoe,08005,80113,2021-06-01,1
402-00281,RME GROUP LLC,AFFINITY,MMC,Denver,Denver,08031,80220,2021-06-01,1
402-00947,NATIONAL GREEN SOURCE LLC,THE GREEN SOURCE,MMC,Colorado Springs,El Paso,08041,80907,2021-06-01,1
402-00934,CANNABIS FOR HEALTH LLC,PIG N WHISTLE,MMC,Denver,Denver,08031,80204,2021-06-01,1
402-00891,NUTRITIONAL ELEMENTS LLC,THE HEALTH CENTER,MMC,Denver,Denver,08031,80222,2021-06-01,1
402-00939,ASCEND II LLC,ASCEND II,MMC,Denver,Denver,08031,80237,2021-06-01,1
402-00967,CORRIDOR 70 LLC,EVERBLOOM,MMC,Wheat Ridge,Jefferson,08059,80033,2021-06-01,1
402-00844,ORGANIC ALTERNATIVES INC,ORGANIC ALTERNATIVES,MMC,Fort Collins,Larimer,08069,80524,2021-06-01,1
402-00370,TITAN HEALTH LLC,TWEEDLEAF,MMC,Denver,Denver,08031,80205,2021-06-01,1
402-00971,SIMPLY PURE EDIBLES COLORADO LLC,HIGHLANDS BEST,MMC,Denver,Denver,08031,80223,2021-06-01,1
402-00374,JET BLACK ENTERPRISES LLC,LEIFFA,MMC,Lakewood,Jefferson,08059,80214,2021-06-01,1
402-00902,BEYOND BROADWAY LLC,LIVWELL,MMC,Denver,Denver,08031,80209,2021-06-01,1
402-00383,THE EPIC REMEDY LLC,THE ER,MMC,Colorado Springs,El Paso,08041,80907,2021-06-01,1
402-00913,ALTERNATIVE MEDICINE ON THE MALL LLC,NATIVE ROOTS SPEER,MMC,Denver,Denver,08031,80203,2021-06-01,1
402-00417,RJJ TOWER LLC,NATIVE ROOTS DENVER AIRPORT,MMC,Denver,Denver,08031,80249,2021-06-01,1
402-00419,CANNABIS CARE WELLNESS CENTERS LLC,SMOKEY'S,MMC,Garden City,Weld,08123,80631,2021-06-01,1
402-00935,MODERN MEDICINE LLC,ALTITUDE ORGANIC MEDICINE,MMC,Colorado Springs,El Paso,08041,80903,2021-06-01,1
402-00428,THE 64 STORE LLC,THE 64 STORE,MMC,Colorado Springs,El Paso,08041,80905,2021-06-01,1
402-00429,KGBI COLORADO LLC,SPARK DISPENSARY,MMC,Denver,Denver,08031,80216,2021-06-01,1
402-00435,VIRTUAL MARKETING LLC,MAGGIE'S FARM,MMC,Canon City,Fremont,08043,81212,2021-06-01,1
402-00439,WHITE STAG FARMS LLC,THE CORNER CO,MMC,Colorado Springs,El Paso,08041,80905,2021-06-01,1
402-00443,TERPS LLC,TERPS,MMC,Colorado Springs,El Paso,08041,80907,2021-06-01,1
402-00444,AMERICAN WHOLESALE LLC,PALMER LAKE WELLNESS CENTER,MMC,Palmer Lake,El Paso,08041,80133,2021-06-01,1
402-00452,I & S LLC,SILVER STEM FINE CANNABIS,MMC,Littleton,Arapahoe,08005,80120,2021-06-01,1
402-00453,KAZIMER LLC,ROCKY MOUNTAIN HIGH,MMC,Denver,Denver,08031,80216,2021-06-01,1
402-00454,SUSTAINABLE HEALTH LLC,14ER HOLISTICS,MMC,Boulder,Boulder,08013,80301,2021-06-01,1
402-00455,HOBBY FARMS LLC,A CUT ABOVE,MMC,Denver,Denver,08031,80210,2021-06-01,1
402-01008,LIVWELL X LLC,LIVWELL,MMC,Colorado Springs,El Paso,08041,80909,2021-06-01,1
402-00473,COSMIC LIGHT LLC,TWEEDLEAF,MMC,Boulder,Boulder,08013,80303,2021-06-01,1
402-00474,TELLURIDE GREEN ROOM LLC,TELLURIDE GREEN ROOM,MMC,Telluride,San Miguel,08113,81435,2021-06-01,1
402-00475,SHAUN D HADLEY,CRAIG APOTHECARY,MMC,Craig,Moffat,08081,81625,2021-06-01,1
402-00484,PNP VENTURES LLC,HEADMASTER,MMC,Colorado Springs,El Paso,08041,80907,2021-06-01,1
402-00486,DURANGO ORGANICS LLP,DO CORTEZ ,MMC,Cortez,Montezuma,08083,81321,2021-06-01,1
402-00490,GREEN MEADOWS DISPENSARY LLC,GREEN MEADOWS DISPENSARY LLC,MMC,Montrose,Montrose,08085,81403,2021-06-01,1
402-00494,MAMMOTH DURANGO LLC,MAMMOTH FARMS,MMC,Denver,Denver,08031,80219,2021-06-01,1
402-00495,COLORADO CANNABIS COMPANY LLC,PURE MARIJUANA DISPENSARY,MMC,Denver,Denver,08031,80216,2021-06-01,1
402-00498,DGS INC,THE KIND ROOM,MMC,Denver,Denver,08031,80210,2021-06-01,1
402-00501,MILE HIGH MEDICAL CANNABIS LLC,LIT,MMC,Denver,Denver,08031,80204,2021-06-01,1
402-00503,505 CENTER LLC,PURE MARIJUANA DISPENSARY ,MMC,Denver,Denver,08031,80216,2021-06-01,1
402-00504,HADCAV ENTERPRISES INC,PURE MARIJUANA DISPENSARY,MMC,Denver,Denver,08031,80220,2021-06-01,1
402-00507,THE HERBAL CURE LLC,,MMC,Denver,Denver,08031,80209,2021-06-01,1
402-00943,BOULDER TREATMENTS LLC,ROOT ORGANIC MMC,MMC,Boulder,Boulder,08013,80303,2021-06-01,1
402-00512,QUALITY CHOICE ALTERNATIVE CARE CENTER LLC,QUALITY CHOICE,MMC,Colorado Springs,El Paso,08041,80909,2021-06-01,1
402-00513,WELLNESS CENTERS OF COLORADO LLC,EMJ'S,MMC,Colorado Springs,El Paso,08041,80907,2021-06-01,1
402-00533,BBM ENTERPRISES LLC,HELPING HANDS CANNABIS,MMC,Boulder,Boulder,08013,80302,2021-06-01,1
402-00539,HOLLISTER & BLACKSMITH INC,NATURALEAF,MMC,Colorado Springs,El Paso,08041,80903,2021-06-01,1
402-00542,COLORADO PRODUCT SERVICES LLC,DOUBLE BLACK,MMC,Glenwood Springs,Garfield,08045,81601,2021-06-01,1
402-00543,COLORADO SPRINGS INVESTMENTS LLC,THE DISPENSARY,MMC,Colorado Springs,El Paso,08041,80909,2021-06-01,1
402-00545,DKC LLC,DENVER KUSH CLUB,MMC,Denver,Denver,08031,80205,2021-06-01,1
402-00549,INDY 3 LLC,INDISPENSARY,MMC,Colorado Springs,El Paso,08041,80907,2021-06-01,1
402-00551,GREEN MEDICINE LLC,GREEN MEDICINE WELLNESS,MMC,Glenwood Springs,Garfield,08045,81601,2021-06-01,1
402-00555,LEVELS IV INC,LEVELS IV INC,MMC,Lakewood,Jefferson,08059,80226,2021-06-01,1
402-00556,FLOWER POWER BOTANICALS LLC,,MMC,Fort Collins,Larimer,08069,80524,2021-06-01,1
402-00558,MAYFLOWER GROUP LLC,THE HEALTH CENTER,MMC,Denver,Denver,08031,80218,2021-06-01,1
402-00565,KINGS CANNABIZ LLC,KINGS CANNABIZ,MMC,Colorado Springs,El Paso,08041,80909,2021-06-01,1
402-00566,SISSCO LLC,TRENCHTOWN,MMC,Denver,Jefferson,08059,80214,2021-06-01,1
402-00569,CMED LLC,ROCKY MOUNTAIN HIGH,MMC,Carbondale,Garfield,08045,81623,2021-06-01,1
402-00573,D & D CONSULTING INC,KAYA CANNABIS,MMC,Denver,Denver,08031,80223,2021-06-01,1
402-00576,SUNRISE SOLUTIONS,,MMC,Bailey,Park,08093,80421,2021-06-01,1
402-00579,P & C EXPRESS LLC,ROCKY MOUNTAIN  HIGH DISPENSARY,MMC,Montrose,Montrose,08085,81401,2021-06-01,1
402-00581,ENLIGHTENED CARE LLC,HIGH COUNTRY HEALING 4,MMC,Colorado Springs,El Paso,08041,80907,2021-06-01,1
402-00583,GM BROADWAY LLC,GOLDEN MEDS,MMC,Denver,Denver,08031,80210,2021-06-01,1
402-00585,HERBAL HEALTH LLC,LOCAL PRODUCT OF COLORADO,MMC,Denver,Denver,08031,80204,2021-06-01,1
402-00588,PLATTE VALLEY DISPENSARY LLC,PLATTE VALLEY DISPENSARY,MMC,Denver,Denver,08031,80211,2021-06-01,1
402-00591,NKHAT LLC,FROST HARVEST,MMC,Colorado Springs,El Paso,08041,80907,2021-06-01,1
402-00597,COLORADO MEDICAL INVESTMENTS LLC,THE DISPENSARY,MMC,Colorado Springs,El Paso,08041,80904,2021-06-01,1
402-00903,LIVWELL I LLC,LIVWELL,MMC,Garden City,Weld,08123,80631,2021-06-01,1
402-00953,ANIMAS HERBAL WELLNESS CENTER INC,PROHIBITION HERB,MMC,Durango,La Plata,08067,81301,2021-06-01,1
402-00602,COLORADO MEDICAL INVESTMENTS LLC,THE DISPENSARY,MMC,Littleton,Arapahoe,08005,80120,2021-06-01,1
402-00603,LIGHTSHADE LABS LLC,LIGHTSHADE,MMC,Denver,Denver,08031,80207,2021-06-01,1
402-00613,IEROS LLC,LIFE FLOWER DISPENSARY LLC,MMC,Glendale,Denver,08031,80246,2021-06-01,1
402-00614,SWEET LEAF PIONEER LLC,,MMC,Eagle,Eagle,08037,81631,2021-06-01,1
402-00618,WHITE MOUNTAIN MEDICINE LLC,LIVWELL,MMC,Colorado Springs,El Paso,08041,80907,2021-06-01,1
402-00637,RJJ HIGHLANDS LLC,NATIVE ROOTS HIGHLANDS,MMC,Denver,Denver,08031,80211,2021-06-01,1
402-00635,GM LAKEWOOD LLC,GOLDEN MEDS,MMC,Lakewood,Jefferson,08059,80215,2021-06-01,1
402-00633,PHYSICIAN PREFERRED PRODUCTS LLC,DOCS APOTHECARY,MMC,Northglenn,Adams,08001,80233,2021-06-01,1
402-00645,MILE HIGH REMEDIES LLC,DOCTORS ORDERS,MMC,Colorado Springs,El Paso,08041,80909,2021-06-01,1
402-00642,FOURTH TURNING INVESTMENTS LLC,,MMC,Boulder,Boulder,08013,80303,2021-06-01,1
402-00649,HG LTD,HIGHER GRADE,MMC,Denver,Denver,08031,80204,2021-06-01,1
402-00653,BROW 1 LLC,XCLUSIVE CANNABIS,MMC,Denver,Denver,08031,80207,2021-06-01,1
402-00655,GANJA GOURMET LLC,GANJA GOURMET,MMC,Denver,Denver,08031,80210,2021-06-01,1
402-00656,GM BRYANT LLC,GOLDEN MEDS,MMC,Denver,Denver,08031,80204,2021-06-01,1
402-00664,SOUTHWEST ALTERNATIVE CARE LLC,KAYA,MMC,Denver,Denver,08031,80204,2021-06-01,1
402-00666,LIVWELL III LLC,LIVWELL,MMC,Denver,Denver,08031,80223,2021-06-01,1
402-00667,ROCKY MOUNTAIN MEDICAL LLC,,MMC,Colorado Springs,El Paso,08041,80909,2021-06-01,1
402-00670,BGOOD VENTURES LLC,BGOOD APOTHECARY,MMC,Denver,Denver,08031,80209,2021-06-01,1
402-00675,LITTLE GREEN PHARMACY INC,LITTLE GREEN PHARMACY,MMC,Denver,Denver,08031,80210,2021-06-01,1
402-00680,SWEETWATER PARTNERS LLC,GOOD CHEMISTRY,MMC,Denver,Denver,08031,80203,2021-06-01,1
402-00681,SWEETWATER PARTNERS LLC,GOOD CHEMISTRY ,MMC,Denver,Denver,08031,80210,2021-06-01,1
402-00691,PERSONALIZED ORGANIC TREATMENTS LLC,CANNA BOTICA,MMC,Denver,Denver,08031,80223,2021-06-01,1
402-00687,MAKENA UNLIMITED LLC,,MMC,Denver,Denver,08031,80210,2021-06-01,1
402-00703,LIVWELL X LLC,LIVWELL,MMC,Denver,Denver,08031,80220,2021-06-01,1
402-00698,HERBAL WELLNESS LLC,HERBAL WELLNESS LLC,MMC,Lafayette,Boulder,08013,80026,2021-06-01,1
402-00699,ALPINE HERBAL WELLNESS LLC,FROSTED LEAF,MMC,Denver,Denver,08031,80209,2021-06-01,1
402-00693,KARMACEUTICALS LLC,KARMACEUTICALS,MMC,Denver,Denver,08031,80223,2021-06-01,1
402-00696,EZ NATURAL ALTERNATIVES LLC,HERBS PLACE,MMC,Colorado Springs,El Paso,08041,80909,2021-06-01,1
402-00866,LONG GONE FARMS LLC,,MMC,Pueblo West,Pueblo,08101,81007,2021-06-01,1
402-00721,MEDICAL CANNABIS COLORADO LLC,CURE COLORADO,MMC,Denver,Denver,08031,80222,2021-06-01,1
402-00739,VENDING BY A & A LLC,NATURE'S OF SEDGWICK,MMC,Sedgwick,Sedgwick,08115,80749,2021-06-01,1
402-00751,3B FEDERAL1 LLC,BUDDY BOY,MMC,Denver,Denver,08031,80219,2021-06-01,1
402-00744,THE HERB SHOPPE LLC,THE HERB SHOPPE,MMC,Colorado Springs,El Paso,08041,80904,2021-06-01,1
402-00746,3B UMATILLA LLC,BUDDY BOY,MMC,Denver,Denver,08031,80204,2021-06-01,1
402-00766,EMERALD CITY WELLNESS LLC,EMERALD CITY WELLNESS,MMC,Colorado Springs,El Paso,08041,80905,2021-06-01,1
402-00773,GATSBY HOLDINGS LLC,BILLO,MMC,Steamboat Springs,Routt,08107,80487,2021-06-01,1
402-00755,MAGGIES FARM LLC,MAGGIES FARM,MMC,Colorado Springs,El Paso,08041,80905,2021-06-01,1
402-00763,HAPPY BUDDHA WELLNESS CENTER LLC,,MMC,Colorado Springs,El Paso,08041,80909,2021-06-01,1
402-00768,E2T2 LLC,COOKIES BROADWAY,MMC,Denver,Denver,08031,80210,2021-06-01,1
402-00786,COS INVESTMENTS LLC,HIGH HOPES,MMC,Colorado Springs,El Paso,08041,80910,2021-06-01,1
402-00832,BOTANACARE LLC,B GOOD,MMC,Northglenn,Adams,08001,80234,2021-06-01,1
402-00788,GOLDEN MEDS MERGERCO LLC,GOLDEN MEDS,MMC,Denver,Denver,08031,80239,2021-06-01,1
402-00789,ADVANCE CURE FOR VERA BESTURA LLC,HERBAN FARMER,MMC,Colorado Springs,El Paso,08041,80904,2021-06-01,1
402-00798,SILVERPEAK CORP,,MMC,Aspen,Pitkin,08097,81611,2021-06-01,1
402-00800,GRANT PHARMS LLC,GRANT PHARMS MMC,MMC,Colorado Springs,El Paso,08041,80906,2021-06-01,1
402-00806,FOX STREET WELLNESS LLC,FOX CANNABIS,MMC,Denver,Denver,08031,80216,2021-06-01,1
402-00811,BELLFLOWER LLC,ORGANIX,MMC,Breckenridge,Summit,08117,80424,2021-06-01,1
402-00815,GM CO SPRINGS LLC,GOLDEN MEDS,MMC,Colorado Springs,El Paso,08041,80903,2021-06-01,1
402-00825,MW INDUSTRY LLC,CROSS GENETICS,MMC,Lakewood,Jefferson,08059,80226,2021-06-01,1
402-00827,DENVER DISPENSARY LLC,DENVER DISPENSARY,MMC,Denver,Denver,08031,80216,2021-06-01,1
402-00829,MEDICINAL WELLNESS CENTER LLC,OASIS CANNABIS SUPERSTORE,MMC,Denver,Denver,08031,80222,2021-06-01,1
402-00831,O LIMITED,SILVER STEM FINE CANNABIS,MMC,Nederland,Boulder,08013,80466,2021-06-01,1
402-00823,ASCEND II LLC,ASCEND CANNABIS CO,MMC,Buena Vista,Chaffee,08015,81211,2021-06-01,1
402-00830,STONE T.M.C. LLC,THE STONE,MMC,Denver,Denver,08031,80219,2021-06-01,1
402-00910,PUEBLO WEST ORGANICS LLC,PUEBLO WEST ORGANICS,MMC,Pueblo West,Pueblo,08101,81007,2021-06-01,1
402-00833,MOUNTAIN ANNIES LLC,,MMC,Ridgway,Ouray,08091,81432,2021-06-01,1
402-00848,GARCIA & MAESTAS INC,LA CASA CANNABIS II,MMC,Alamosa,Alamosa,08003,81101,2021-06-01,1
402-00957,CONCENTRATE LLC,WOLF PAC CANNABIS,MMC,Denver,Denver,08031,80219,2021-06-01,1
402-00839,THE GREEN SOLUTION LLC,,MMC,Fort Collins,Larimer,08069,80524,2021-06-01,1
402-00840,VERTS LLC,VERTICAL,MMC,Fort Collins,Larimer,08069,80521,2021-06-01,1
402-00854,GREEN FIELDS LLC,GREENFIELDS,MMC,Denver,Denver,08031,80223,2021-06-01,1
402-00858,GREEN MEDICALS WELLNESS CENTER #5 LLC,SMOKEYS,MMC,Fort Collins,Larimer,08069,80525,2021-06-01,1
402-00859,NATURAL ALTERNATIVES FOR LIFE LLC,GREEN TREE MEDICINALS,MMC,Berthoud,Larimer,08069,80513,2021-06-01,1
402-00869,ACADEMY OF THE HEALING ARTS LLC,HIGH VALLEY HEALING ALAMOSA,MMC,Alamosa,Alamosa,08003,81101,2021-06-01,1
402-00867,CG INDUSTRY LLC,CROSS GENETICS,MMC,Denver,Denver,08031,80219,2021-06-01,1
402-00868,NATIONAL GREEN SOURCE LLC,THE GREEN SOURCE,MMC,Colorado Springs,El Paso,08041,80909,2021-06-01,1
402-00870,DENCO LLC, ,MMC,Denver,Denver,08031,80216,2021-06-01,1
402-00861,ELITE ORGANICS LLC,ELITE ORGANICS,MMC,Fort Collins,Larimer,08069,80524,2021-06-01,1
402-00874,PG RETAIL I LLC,NATURE'S MEDICINE,MMC,Northglenn,Adams,08001,80234,2021-06-01,1
402-00864,CANNACURA LLC,,MMC,Colorado Springs,El Paso,08041,80916,2021-06-01,1
402-00875,DR RELEAF INC,,MMC,Colorado Springs,El Paso,08041,80909,2021-06-01,1
402-00837,LIVWELL VII LLC,LIVWELL,MMC,Fort Collins,Larimer,08069,80524,2021-06-01,1
402-00883,MAGNOLIA ROAD INC,MAGNOLIA ROAD CANNABIS COMPANY,MMC,Boulder,Boulder,08013,80301,2021-06-01,1
402-00880,ROCKY ROAD REMEDIES LLC,ROCKY ROAD WEST,MMC,Colorado Springs,El Paso,08041,80917,2021-06-01,1
402-00899,MAGGIES FARM LLC,MAGGIE'S FARM,MMC,Pueblo West,Pueblo,08101,81007,2021-06-01,1
402-00893,J&R PARTNERS LLC,NATIVE ROOTS VAIL,MMC,Avon,Eagle,08037,81620,2021-06-01,1
402-00887,NATURAL ALTERNATIVES FOR HEALTH CORP,,MMC,Fort Collins,Larimer,08069,80525,2021-06-01,1
402-00933,MJLQ LLC,GREEN RINO,MMC,Denver,Denver,08031,80216,2021-06-01,1
402-00924,BOLDER VENTURES LTD,THE PEACEFUL CHOICE,MMC,Boulder,Boulder,08013,80303,2021-06-01,1
402-00929,ACES PLACE LLC,,MMC,Fort Collins,Larimer,08069,80524,2021-06-01,1
402-00930,BIG MOUNTAIN ORGANICS LLC,BIG MEDICINE CANNABISSARY,MMC,Colorado Springs,El Paso,08041,80907,2021-06-01,1
402-00954,HERBAL HEALING LLC,HERBAL HEALING,MMC,Colorado Springs,El Paso,08041,80909,2021-06-01,1
402-00942,JVT ENTERPRISES INC,COLORADO CANNABIS CONNECTION,MMC,Denver,Jefferson,08059,80127,2021-06-01,1
402-00945,NATURE MED INC,KIND-MEDS,MMC,Denver,Denver,08031,80223,2021-06-01,1
402-00956,WELLNESS CENTER OF THE ROCKIES INC,THE CENTER,MMC,Denver,Denver,08031,80224,2021-06-01,1
402-00949,M&M DISTRIBUTING LLC,,MMC,Trinidad,Las Animas,08071,81082,2021-06-01,1
402-00958,ZENGOLDS LLC,,MMC,Fort Collins,Larimer,08069,80525,2021-06-01,1
402-00941,BK HOLDINGS LLC,THE HERBAL CENTER,MMC,Denver,Denver,08031,80239,2021-06-01,1
402-00969,COS INVESTMENTS LLC,HIGH HOPES,MMC,Colorado Springs,El Paso,08041,80918,2021-06-01,1
402-00970,LIGHTSHADE LABS LLC,LIGHTSHADE,MMC,Denver,Jefferson,08059,80232,2021-06-01,1
402-00966,CORRIDOR 70 LLC,EVERBLOOM,MMC,Rifle,Garfield,08045,81650,2021-06-01,1
402-00975,COLORADO DISTRIBUTING LLC,THE DISPO,MMC,Pueblo West,Pueblo,08101,81007,2021-06-01,1
402-00972,RJJ EDGEWATER LLC,NATIVE ROOTS EDGEWATER,MMC,Edgewater,Jefferson,08059,80214,2021-06-01,1
402-00973,NATURES HERBS & WELLNESS CENTER II LLC,,MMC,Log Lane Village,Morgan,08087,80705,2021-06-01,1
402-00980,1917 SANTA FE LLC,APOTHECARY FARMS,MMC,Pueblo,Pueblo,08101,81006,2021-06-01,1
402-00983,BIOMEDS LLC,BIOMEDS,MMC,Colorado Springs,El Paso,08041,80905,2021-06-01,1
402-00989,IGADI LTD,IGADI,MMC,Tabernash,Grand,08049,80478,2021-06-01,1
402-00978,ASCEND LITTLETON LLC,ASCEND CANNABIS CO,MMC,Littleton,Arapahoe,08005,80120,2021-06-01,1
402-00993,EARTH SOLUTIONS INC,CANNA CABINET INC,MMC,Pueblo,Pueblo,08101,81004,2021-06-01,1
402-00992,TRINIDADS HIGHER CALLING U LLC,,MMC,Trinidad,Las Animas,08071,81082,2021-06-01,1
402-01011,SEVEN-ONE-NINE LLC,COLORADO KUSH DISPENSARY,MMC,Pueblo,Pueblo,08101,81004,2021-06-01,1
402-01002,H & M ENTERPRISE LLC,MEDICAL CANNABIS & PARTNERS,MMC,Colorado Springs,El Paso,08041,80909,2021-06-01,1
402-01020,8058 LLC,MIGHTY TREE,MMC,Denver,Denver,08031,80211,2021-06-01,1
402-01014,THE CHRONIC FACTORY LLC,THE CHRONIC FACTORY,MMC,Denver,Denver,08031,80223,2021-06-01,1
402-01023,MODERN MEDICINE LLC,ALTITUDE ORGANIC MEDICINE,MMC,Colorado Springs,El Paso,08041,80918,2021-06-01,1
402-01016,FOUNTAIN ORGANICS LLC,FOUNTAIN ORGANICS,MMC,Colorado Springs,El Paso,08041,80917,2021-06-01,1
402-01026,CANNA MEDS WELLNESS CENTER LLC,CANNA MEDS WELLNESS CENTER,MMC,Colorado Springs,El Paso,08041,80909,2021-06-01,1
402-01030,SMOKED COLORADO INC,MIGHTY TREE,MMC,Denver,Denver,08031,80223,2021-06-01,1
402-01031,GREEN PHARM II LLC,GREEN PHARM,MMC,Colorado Springs,El Paso,08041,80918,2021-06-01,1
402-01019,FRANKS FARM LLC,FRANKS FARM,MMC,Colorado Springs,El Paso,08041,80910,2021-06-01,1
402-00988,WESTSIDE WELLNESS CENTER LLC,MAGGIE'S FARM,MMC,Pueblo,Pueblo,08101,81006,2021-06-01,1
402-01044,ZIPZ LLC,ZIPZ,MMC,Colorado Springs,El Paso,08041,80907,2021-06-01,1
402-01038,PHOENIX CORP,MANA CANNABIS SUPPLY CO,MMC,Denver,Denver,08031,80204,2021-06-01,1
402-01039,MAGIC CITY FARMS 2 LLC,MAGIC CITY CANNABIS,MMC,Denver,Denver,08031,80239,2021-06-01,1
402-01040,GROW DISPENSARY INC,,MMC,Pueblo West,Pueblo,08101,81007,2021-06-01,1
402-01057,SDJ LLC,LIVING ROSE WELLNESS,MMC,Colorado Springs,El Paso,08041,80904,2021-06-01,1
402-01058,PRIMAL LLC,,MMC,Colorado Springs,El Paso,08041,80909,2021-06-01,1
402-01071,GARDEN OF THE BUDZ LLC,GARDEN OF THE BUDZ,MMC,Colorado Springs,El Paso,08041,80904,2021-06-01,1
402-01072,MODERN MEDICINE LLC,ALTITUDE ORGANIC MEDICINE,MMC,Colorado Springs,El Paso,08041,80909,2021-06-01,1
402-01070,RJJ SANTA FE LLC,NATIVE ROOTS SANTA FE,MMC,Denver,Denver,08031,80223,2021-06-01,1
402-01075,LUX INC,THE LUX LEAF,MMC,Colorado Springs,El Paso,08041,80904,2021-06-01,1
402-01076,MJM HOLDINGS LIMITED,STICKY FINGERZ,MMC,Denver,Denver,08031,80205,2021-06-01,1
402-01077,LEVELS IV INC,,MMC,Denver,Denver,08031,80212,2021-06-01,1
402-01078,DR RELEAF INC,,MMC,Colorado Springs,El Paso,08041,80915,2021-06-01,1
402-01079,BK HOLDINGS LLC,THE HERBAL CENTER,MMC,Denver,Denver,08031,80210,2021-06-01,1
402-01080,GREEN GARDENS LLC,GREEN FIELDS,MMC,Denver,Denver,08031,80223,2021-06-01,1
402-01081,OUTER WORLD LLC,TWEEDLEAF,MMC,Colorado Springs,El Paso,08041,80905,2021-06-01,1
402-01085,ANCIENT ALTERNATIVES LLC,GREEN TREE MEDICINALS,MMC,Longmont,Weld,08123,80504,2021-06-01,1
402-01089,CANNAJUANA LLC,,MMC,Denver,Denver,08031,80223,2021-06-01,1
402-01084,RJJ ACADEMY LLC,NATIVE ROOTS ACADEMY,MMC,Colorado Springs,El Paso,08041,80909,2021-06-01,1
402-01093,JPJR AND ASSOCIATES LLC,STASH HOUSE,MMC,Denver,Denver,08031,80211,2021-06-01,1
402-01062,NUVUE PHARMA LLC,,MMC,Pueblo,Pueblo,08101,81008,2021-06-01,1
402-01064,CG INDUSTRY LLC,CROSS GENETICS,MMC,Denver,Denver,08031,80216,2021-06-01,1
402-01065,HOLLISTER & BLACKSMITH INC,NATURALEAF,MMC,Colorado Springs,El Paso,08041,80909,2021-06-01,1
402-01066,TROY ENTERPRISES LLC,ELEVATIONS,MMC,Colorado Springs,El Paso,08041,80920,2021-06-01,1
402-01097,ADAMS GREEN CROSSING LLC,THE CHRONIC BOUTIQUE,MMC,Colorado Springs,El Paso,08041,80904,2021-06-01,1
402-01100,FREEDOM ROAD GARDEN LTD,FREEDOM ROAD,MMC,Trinidad,Las Animas,08071,81082,2021-06-01,1
402-01109,ITS ALL GOOD ENTERPRISES LLC,GOOD WEED,MMC,Colorado Springs,El Paso,08041,80903,2021-06-01,1
402-01115,MAGGIES FARM LLC,MAGGIES FARM,MMC,Manitou Springs,El Paso,08041,80829,2021-06-01,1
402-00959,INDY 2 LLC,INDISPENSARY,MMC,Colorado Springs,El Paso,08041,80904,2021-06-01,1
402-01111,THE EPIC REMEDY LLC,THE ER,MMC,Colorado Springs,El Paso,08041,80910,2021-06-01,1
402-01120,ROYAL ASSET MANAGEMENT LLC,DIEGO PELLICER,MMC,Denver,Denver,08031,80219,2021-06-01,1
402-01127,STEM BEACH DISPENSARY LLC,DOCTORS ORDERS,MMC,Pueblo,Pueblo,08101,81004,2021-06-01,1
402-01119,37 INC,APOTHECARY FARMS,MMC,Colorado Springs,El Paso,08041,80910,2021-06-01,1
402-01140,RJJ TEJON LLC,NATIVE ROOTS TEJON,MMC,Colorado Springs,El Paso,08041,80905,2021-06-01,1
402-01139,SOUTHERN COLORADO CANNABIS CLUB LLC,,MMC,Fort Garland,Costilla,08023,81133,2021-06-01,1
402-01154,TOTAL GREEN LLC,TOTAL GREEN,MMC,Colorado Springs,El Paso,08041,80910,2021-06-01,1
402-01142,TITAN HEALTH LLC,TWEEDLEAF,MMC,Denver,Denver,08031,80223,2021-06-01,1
402-01146,BCC LLC,BONFIRE CANNABIS COMPANY,MMC,Denver,Denver,08031,80216,2021-06-01,1
402-01157,PIKES PEAK INDUSTRIES LLC,BUD EZ,MMC,Colorado Springs,El Paso,08041,80903,2021-06-01,1
402-01153,GRANT PHARMS LLC,GRANT PHARMS MMC,MMC,Colorado Springs,El Paso,08041,80909,2021-06-01,1
402-01149,HGCO LLC,None,MMC,Colorado Springs,El Paso,08041,80916,2021-06-01,1
402-01158,TOP SHELF LLC,TOP SHELF,MMC,Denver,Denver,08031,80209,2021-06-01,1
402-01145,ADAMS GREEN CROSSING LLC,THE CHRONIC BOUTIQUE,MMC,Colorado Springs,El Paso,08041,80909,2021-06-01,1
402-01169,KANOPYA HOLDINGS LLC,KANOPYA SPRINGS,MMC,Colorado Springs,El Paso,08041,80909,2021-06-01,1
402-01162,HERBAL HEALING LLC,HERBAL HEALING,MMC,Colorado Springs,El Paso,08041,80907,2021-06-01,1
402-01144,ADAMS GREEN CROSSING LLC,THE CHRONIC BOUTIQUE,MMC,Colorado Springs,El Paso,08041,80903,2021-06-01,1
402-01168,ROCKY ROAD REMEDIES LLC,ROCKY ROAD ORIGINAL,MMC,Colorado Springs,El Paso,08041,80916,2021-06-01,1
402-01166,YUMA WAY LLC,CHERRY PEAK,MMC,Glendale,Denver,08031,80246,2021-06-01,1
402-01173,GREEN FARMS LLC,,MMC,Colorado Springs,El Paso,08041,80909,2021-06-01,1
402-01174,PNP VENTURES LLC,HEADMASTER,MMC,Colorado Springs,El Paso,08041,80909,2021-06-01,1
402-01163,HERBAL HEALING LLC,HERBAL HEALING,MMC,Colorado Springs,El Paso,08041,80907,2021-06-01,1
402-01176,BUKU LOUD LLC,BUKU LOUD,MMC,Colorado Springs,El Paso,08041,80916,2021-06-01,1
402-01167,J2JCO LLC,FIRE MEDS,MMC,Colorado Springs,El Paso,08041,80909,2021-06-01,1
402-01181,GT INDUSTRIES LLC,HUSH CANNABIS & CONFECTIONS,MMC,Avon,Eagle,08037,81620,2021-06-01,1
402-01170,STJ APPAREL LLC,FIRE MEDS,MMC,Colorado Springs,El Paso,08041,80909,2021-06-01,1
402-01194,THE GOLDEN SUMMIT LLC,THE APOTHEKE,MMC,Colorado Springs,El Paso,08041,80916,2021-06-01,1
402-01171,BEST BUDZ LLC,BEST BUDZ,MMC,Colorado Springs,El Paso,08041,80907,2021-06-01,1
402-01197,1-11 LLC,ONE:ELEVEN,MMC,Moffat,Saguache,08109,81143,2021-06-01,1
402-01185,TESLA LLC,,MMC,Denver,Denver,08031,80216,2021-06-01,1
402-01193,HG LTD,HIGHER GRADE,MMC,Denver,Denver,08031,80231,2021-06-01,1
402-01201,MMJ 95 LLC,TWEEDLEAF,MMC,Colorado Springs,El Paso,08041,80918,2021-06-01,1
402-01187,LBW CONSULTING GROUP LLC,SEED & SMITH,MMC,Denver,Denver,08031,80239,2021-06-01,1
402-01207,BEST MEDS LLC,,MMC,Colorado Springs,El Paso,08041,80904,2021-06-01,1
402-01221,LIGHTSHADE LABS LLC,LIGHTSHADE,MMC,Denver,Denver,08031,80239,2021-06-01,1
402-01225,TRICHOME HEALTH CONSULTANTS INC,TRICHOME HEALTH CONSULTANTS,MMC,Colorado Springs,El Paso,08041,80903,2021-06-01,1
402-01211,ROCKY FARMS LLC,ROCKY FARMS,MMC,Rocky Ford,Otero,08089,81067,2021-06-01,1
402-01237,IHN HOLDINGS LLC,5280 WEEDERY LLC,MMC,Denver,Denver,08031,80216,2021-06-01,1
402-01263,STATION 2 LLC,,MMC,Denver,Denver,08031,80219,2021-06-01,1
402-01264,MHFS LLC,GOOD CHEMISTRY,MMC,Denver,Denver,08031,80211,2021-06-01,1
402-01238,BGOOD VENTURES LLC,BGOOD APOTHECARY,MMC,Englewood,Arapahoe,08005,80110,2021-06-01,1
402-01251,IGADI LTD ,IGADI,MMC,Lafayette,Boulder,08013,80026,2021-06-01,1
402-01260,PHYSICIAN PREFERRED PRODUCTS LLC,DOCS APOTHECARY,MMC,Denver,Denver,08031,80216,2021-06-01,1
402-01272,FRONT RANGE BOTANICAL LLC,SOUTH PARK FARMA,MMC,Commerce City,Adams,08001,80022,2021-06-01,1
402-01243,NATIONAL GREEN SOURCE LLC,THE GREEN SOURCE,MMC,Pueblo,Pueblo,08101,81007,2021-06-01,1
402-01284,10232 LLC,PROVISIONS,MMC,Walsenburg,Huerfano,08055,81089,2021-06-01,1
402-01278,YUMA WAY LLC,TWIN PEAKS DISPENSARY,MMC,Longmont,Boulder,08013,80501,2021-06-01,1
402-01300,N&G ENTERPRISES LLC,LOUD,MMC,Commerce City,Adams,08001,80022,2021-06-01,1
402-01291,ROCKY FORD STATION LLC,THE STATION,MMC,Rocky Ford,Otero,08089,81067,2021-06-01,1
402-01288,PLAIN JANE ORGANICS LLC,,MMC,Colorado City,Pueblo,08101,81019,2021-06-01,1
402-01310,SBUD LLC,STARBUDS,MMC,Mountain View,Denver,08031,80212,2021-06-01,1
402-01304,DOWN VALLEY HYH LLC,GOODPEOPLE ,MMC,Basalt,Eagle,08037,81621,2021-06-01,1
402-01326,TUMBLEWEED CRAIG LLC,,MMC,Craig,Moffat,08081,81625,2021-06-01,1
402-01313,GREEN MEADOWS DISPENSARY LLC ,GREEN MEADOWS DISPENSARY LLC,MMC,Delta,Delta,08029,81416,2021-06-01,1
402-01316,ONYX LAKE HOLDINGS LLC ,GOLDEN NUGGET DISPENSARY,MMC,Central City,Gilpin,08047,80427,2021-06-01,1
402-01319,RESERVE1 MANITOU LLC,EMERALD FIELDS,MMC,Manitou Springs,El Paso,08041,80829,2021-06-01,1
402-01324,EXIT 243 LLC ,DISPENSARY EXIT 243,MMC,Idaho Springs,Clear Creek,08019,80452,2021-06-01,1
402-01331,MAGGIES FARM LLC,MAGGIE'S FARM,MMC,Las Animas,Bent,08011,81054,2021-06-01,1
402-01323,MC2 BOULDER LLC ,MARQUIS CANNABIS ,MMC,Boulder,Boulder,08013,80302,2021-06-01,1
402-01330,2251SB LLC,APOTHECARY FARMS,MMC,Colorado Springs,El Paso,08041,80909,2021-06-01,1
402-01334,MODERN MEDICINE LLC,ALTITUDE ORGANIC CANNABIS,MMC,Dillon,Summit,08117,80435,2021-06-01,1
402-01328,SISTEM COMMERCE CITY LLC ,SILVER STEM FINE CANNABIS,MMC,Commerce City,Adams,08001,80022,2021-06-01,1
402-00925,KIND LOVE LLC,KIND LOVE ,MMC,Glendale,Denver,08031,80246,2021-06-01,1
402-00923,THE GENETIC LOCKER INC,TERRAPIN CARE STATION,MMC,Boulder,Boulder,08013,80303,2021-06-01,1
402-00062,NATURES HERBS & WELLNESS CENTER,,MMC,Garden City,Weld,08123,80631,2021-06-01,1
402-00118,TWOG-WALNUT LLC,BUDDY BOY,MMC,Denver,Denver,08031,80205,2021-06-01,1
402-00872,HOLLY MEDICINAL SERVICES LLC,THE CLINIC ON COLORADO,MMC,Denver,Denver,08031,80222,2021-06-01,1
402-00194,THE DANDELION LLC,THE DANDELION,MMC,Boulder,Boulder,08013,80302,2021-06-01,1
402-00249,TWOG-YORK LLC,BUDDY BOY,MMC,Denver,Denver,08031,80216,2021-06-01,1
402-00918,ROCKY ROAD REMEDIES LLC,ROCKY ROAD SOUTH,MMC,Colorado Springs,El Paso,08041,80915,2021-06-01,1
402-00313,HEALING HOUSE LAKEWOOD LLC,ASCEND CANNABIS CO,MMC,Lakewood,Jefferson,08059,80226,2021-06-01,1
402-00940,COMPASSIONATE ENTERPRISES LLC,THE CLINIC ON WADSWORTH,MMC,Lakewood,Jefferson,08059,80235,2021-06-01,1
402-00976,BIG RIVER BEND LLC,UNITY ROAD,MMC,Boulder,Boulder,08013,80302,2021-06-01,1
402-01000,LIVWELL X LLC,LIVWELL,MMC,Berthoud,Larimer,08069,80513,2021-06-01,1
402-00481,D AND C MEDICAL MARIJUANA LLC,GOLDEN LEAF,MMC,Steamboat Springs,Routt,08107,80487,2021-06-01,1
402-00532,DURANGO ORGANICS LLP,,MMC,Durango,La Plata,08067,81303,2021-06-01,1
402-00584,THE HEALING CANNA LLC,,MMC,Colorado Springs,El Paso,08041,80909,2021-06-01,1
402-00690,TWOG FEDERAL LLC,BUDDY BOY,MMC,Denver,Denver,08031,80219,2021-06-01,1
402-00714,DOCTORS ORDERS LLC,DOCTORS ORDERS,MMC,Denver,Denver,08031,80211,2021-06-01,1
402-00729,STANDING AKIMBO LLC,,MMC,Denver,Denver,08031,80211,2021-06-01,1
402-00736,HERBAL OPTIONS LLC,GOOD MEDS,MMC,Englewood,Arapahoe,08005,80110,2021-06-01,1
402-00738,ROCKY MOUNTAIN WAYS LLC,GOOD MEDS,MMC,Lakewood,Jefferson,08059,80215,2021-06-01,1
402-00745,3B KALAMATH LLC,BUDDY BOY,MMC,Denver,Denver,08031,80223,2021-06-01,1
402-00793,RINO SUPPLY CO INC,RINO SUPPLY COMPANY,MMC,Denver,Denver,08031,80205,2021-06-01,1
402-01015,OPTIONS CANNABIS CO LTD,OPTIONS,MMC,Wheat Ridge,Jefferson,08059,80033,2021-06-01,1
402-01092,THE EPIC REMEDY LLC,THE ER,MMC,Colorado Springs,El Paso,08041,80910,2021-06-01,1
402-00849,3B-38 LLC,BUDDY BOY,MMC,Denver,Denver,08031,80212,2021-06-01,1
402-00877,POTCO LLC,POTCO,MMC,Denver,Denver,08031,80239,2021-06-01,1
402-00894,LIVWELL II LLC,LIVWELL,MMC,Colorado Springs,El Paso,08041,80915,2021-06-01,1
402-00905,RJJ FRISCO LLC,NATIVE ROOTS FRISCO,MMC,Frisco,Summit,08117,80443,2021-06-01,1
402-00961,RJJ LONGMONT LLC,NATIVE ROOTS LONGMONT,MMC,Longmont,Boulder,08013,80501,2021-06-01,1
402-00977,RJJ SHERIDAN LLC,NATIVE ROOTS LITTLETON,MMC,Denver,Jefferson,08059,80123,2021-06-01,1
402-01005,THREE RIVERS DEVELOPMENT LLC,THREE RIVERS DISPENSARY,MMC,Pueblo,Pueblo,08101,81006,2021-06-01,1
402-01042,RJJ COLORADO SPRINGS LLC,NATIVE ROOTS COLORADO SPRINGS,MMC,Colorado Springs,El Paso,08041,80918,2021-06-01,1
402-01083,RJJ UINTAH LLC,NATIVE ROOTS UINTAH,MMC,Colorado Springs,El Paso,08041,80904,2021-06-01,1
402-01101,WASH PARK BOUTIQUE LLC,LUCY SKY CANNABIS BOUTIQUE,MMC,Denver,Denver,08031,80210,2021-06-01,1
402-01122,GREEN SATIVA LLC,,MMC,Federal Heights,Adams,08001,80260,2021-06-01,1
402-01130,MODERN MEDICINE LLC,ALTITUDE ORGANIC MEDICINE,MMC,Colorado Springs,El Paso,08041,80907,2021-06-01,1
402-01255,LIGHTSHADE LABS LLC,LIGHTSHADE,MMC,Federal Heights,Adams,08001,80260,2021-06-01,1
402R-00005,CRICECANN LLC,CALLIE'S,Retail Marijuana Store,Denver,Denver,08031,80204,2021-06-01,0
402R-00012,DGS INC,THE KIND ROOM,Retail Marijuana Store,Denver,Denver,08031,80210,2021-06-01,0
402R-00013,ALTERNATIVE MEDICINE ON CAPITOL HILL LLC,,Retail Marijuana Store,Denver,Denver,08031,80218,2021-06-01,0
402R-00002,CENTRAL LLC,BONFIRE CANNABIS,Retail Marijuana Store,Central City,Gilpin,08047,80427,2021-06-01,0
402R-00003,CORRIDOR 70 LLC,EVERBLOOM,Retail Marijuana Store,Denver,Denver,08031,80216,2021-06-01,0
402R-00004,JGB VENTURES LLC,DANK,Retail Marijuana Store,Denver,Denver,08031,80207,2021-06-01,0
402R-00006,CONCENTRATE LLC,WOLF PAC CANNABIS,Retail Marijuana Store,Denver,Denver,08031,80219,2021-06-01,0
402R-00007,L3ASTOCKCOMPLEX LLC,EUFLORA,Retail Marijuana Store,Denver,Denver,08031,80216,2021-06-01,0
402R-00010,CORRIDOR 70 LLC,EVERBLOOM,Retail Marijuana Store,Denver,Denver,08031,80216,2021-06-01,0
402R-00011,MILE HIGH THERAPEUTIC NETWORK LLC,ALTITUDE WEST,Retail Marijuana Store,Denver,Denver,08031,80219,2021-06-01,0
402R-00019,PI ARAPAHOE LLC,LOVA ARAPAHOE,Retail Marijuana Store,Denver,Denver,08031,80205,2021-06-01,0
402R-00014,THE GREEN SOLUTION LLC,,Retail Marijuana Store,Northglenn,Adams,08001,80233,2021-06-01,0
402R-00780,THE GREEN SOLUTION LLC,,Retail Marijuana Store,Aspen,Pitkin,08097,81611,2021-06-01,0
402R-00015,THE GREEN SOLUTION LLC,,Retail Marijuana Store,Denver,Denver,08031,80216,2021-06-01,0
402R-00016,THE GREEN SOLUTION LLC,,Retail Marijuana Store,Denver,Denver,08031,80219,2021-06-01,0
402R-00017,MAYFLOWER GROUP LLC,THE HEALTH CENTER,Retail Marijuana Store,Denver,Denver,08031,80218,2021-06-01,0
402R-00020,NUTRITIONAL ELEMENTS LLC,THE HEALTH CENTER,Retail Marijuana Store,Denver,Denver,08031,80222,2021-06-01,0
402R-00021,SBUD LLC,STARBUDS,Retail Marijuana Store,Denver,Denver,08031,80216,2021-06-01,0
402R-00022,SBUD LLC,STARBUDS,Retail Marijuana Store,Denver,Denver,08031,80210,2021-06-01,0
402R-00031,SWEETWATER PARTNERS LLC,GOOD CHEMISTRY,Retail Marijuana Store,Denver,Denver,08031,80203,2021-06-01,0
402R-00032,SWEETWATER PARTNERS LLC,GOOD CHEMISTRY,Retail Marijuana Store,Denver,Denver,08031,80210,2021-06-01,0
402R-00033,CHOICE ORGANICS INC,,Retail Marijuana Store,Fort Collins,Larimer,08069,80524,2021-06-01,0
402R-00024,TREATMENTS UNLIMITED LLC,ALTITUDE EAST,Retail Marijuana Store,Denver,Denver,08031,80224,2021-06-01,0
402R-00034,FUTUREVISION LTD,MEDICINE MAN,Retail Marijuana Store,Denver,Denver,08031,80239,2021-06-01,0
402R-00026,DKC LLC,DENVER KUSH CLUB,Retail Marijuana Store,Denver,Denver,08031,80205,2021-06-01,0
402R-00027,ALTERNATIVE MEDICINE ON THE MALL LLC,NATIVE ROOTS SPEER,Retail Marijuana Store,Denver,Denver,08031,80203,2021-06-01,0
402R-00030,NATURES CURE III LLC,THE COLFAX POT SHOP,Retail Marijuana Store,Denver,Denver,08031,80218,2021-06-01,0
402R-00037,LIGHTSHADE LABS LLC,LIGHTSHADE,Retail Marijuana Store,Denver,Denver,08031,80222,2021-06-01,0
402R-00035,IDAHO SPRINGS LLC,BONFIRE CANNABIS,Retail Marijuana Store,Idaho Springs,Clear Creek,08019,80452,2021-06-01,0
402R-00046,DP RETAIL 112 LLC,GREEN DRAGON,Retail Marijuana Store,Denver,Denver,08031,80220,2021-06-01,0
402R-00038,DP RETAIL 101 LLC,GREEN DRAGON,Retail Marijuana Store,Denver,Denver,08031,80223,2021-06-01,0
402R-00039,DOCTORS ORDERS LLC,DOCTOR'S ORDERS,Retail Marijuana Store,Denver,Denver,08031,80211,2021-06-01,0
402R-00042,HIGHLANDS WELLNESS CENTER LLC,THE CLINIC HIGHLANDS,Retail Marijuana Store,Denver,Denver,08031,80211,2021-06-01,0
402R-00049,RJJ MORRISON II LLC,NATIVE ROOTS COLORADO BLVD,Retail Marijuana Store,Denver,Denver,08031,80246,2021-06-01,0
402R-00050,MTB CO LLC,LAKESHORE CANNABIS,Retail Marijuana Store,Edgewater,Jefferson,08059,80214,2021-06-01,0
402R-00048,2251SB LLC,APOTHECARY FARMS,Retail Marijuana Store,Denver,Denver,08031,80210,2021-06-01,0
402R-00052,NATURES HERBS & WELLNESS CENTER,NATURES HERBS & WELLNESS CENTER,Retail Marijuana Store,Garden City,Weld,08123,80631,2021-06-01,0
402R-00053,CRICECANN LLC,CALLIE'S,Retail Marijuana Store,Denver,Denver,08031,80205,2021-06-01,0
402R-00054,DJR COLORADO LLC,HIGH LEVEL HEALTH,Retail Marijuana Store,Denver,Denver,08031,80202,2021-06-01,0
402R-00056,JS INVESTMENTS LLC,EUFLORA,Retail Marijuana Store,Denver,Denver,08031,80202,2021-06-01,0
402R-00055,A CUT OFF THE TOP MEDICAL MARIJUANA LLC,,Retail Marijuana Store,Denver,Denver,08031,80204,2021-06-01,0
402R-00040,ASCEND II LLC,ASCEND II,Retail Marijuana Store,Denver,Denver,08031,80237,2021-06-01,0
402R-00041,URBAN CANNABIS II LLC,HEALING HOUSE ,Retail Marijuana Store,Denver,Denver,08031,80210,2021-06-01,0
402R-00043,PIONEER INTERESTS SHERIDAN LLC,LOVA EDGEWATER,Retail Marijuana Store,Edgewater,Jefferson,08059,80214,2021-06-01,0
402R-00044,RD INDUSTRIES II LLC,HOUSE OF DANKNESS,Retail Marijuana Store,Denver,Denver,08031,80239,2021-06-01,0
402R-00058,MILE HIGH MEDICAL CANNABIS LLC,LIT,Retail Marijuana Store,Denver,Denver,08031,80210,2021-06-01,0
402R-00047,4625 E COLFAX LLC,THE CLINIC ON COLFAX,Retail Marijuana Store,Denver,Denver,08031,80220,2021-06-01,0
402R-00045,MILE HIGH MEDICAL CANNABIS LLC,LIT,Retail Marijuana Store,Denver,Denver,08031,80204,2021-06-01,0
402R-00060,DENCO LLC,,Retail Marijuana Store,Denver,Denver,08031,80216,2021-06-01,0
402R-00071,KAZIMER LLC,ROCKY MOUNTAIN  HIGH,Retail Marijuana Store,Denver,Denver,08031,80216,2021-06-01,0
402R-00062,GOLDEN MEDS MERGERCO LLC,GOLDEN MEDS,Retail Marijuana Store,Denver,Denver,08031,80239,2021-06-01,0
402R-00063,DENCO LLC,,Retail Marijuana Store,Pueblo West,Pueblo,08101,81007,2021-06-01,0
402R-00070,COMPASSIONATE CARE GIVERS INC,ROCKY MOUNTAIN HIGH,Retail Marijuana Store,Denver,Denver,08031,80202,2021-06-01,0
402R-00066,EXCELSIOR MANAGEMENT LLC,TWEEDLEAF,Retail Marijuana Store,Central City,Gilpin,08047,80427,2021-06-01,0
402R-00064,BELLFLOWER LLC,ORGANIX,Retail Marijuana Store,Breckenridge,Summit,08117,80424,2021-06-01,0
402R-00065,SERENE WELLNESS LLC,,Retail Marijuana Store,Empire,Clear Creek,08019,80438,2021-06-01,0
402R-00074,BRECKENRIDGE INVESTMENTS LLC,ALPENGLOW,Retail Marijuana Store,Breckenridge,Summit,08117,80424,2021-06-01,0
402R-00068,COMPASSIONATE CARE GIVERS INC,CANNABIS STATION,Retail Marijuana Store,Denver,Denver,08031,80202,2021-06-01,0
402R-00072,CMED LLC,ROCKY MOUNTAIN HIGH,Retail Marijuana Store,Carbondale,Garfield,08045,81623,2021-06-01,0
402R-00069,COMPASSIONATE CARE GIVERS INC,ROCKY MOUNTAIN HIGH,Retail Marijuana Store,Denver,Denver,08031,80223,2021-06-01,0
402R-00073,LIGHTSHADE LABS LLC,LIGHTSHADE,Retail Marijuana Store,Denver,Denver,08031,80207,2021-06-01,0
402R-00081,1617 WAZEE STREET LLC,LODO WELLNESS CENTER,Retail Marijuana Store,Denver,Denver,08031,80202,2021-06-01,0
402R-00078,HIGH COUNTRY SUPPLY LLC,COLORADO HARVEST COMPANY,Retail Marijuana Store,Denver,Denver,08031,80210,2021-06-01,0
402R-00079,HOLLY MEDICINAL SERVICES LLC,THE CLINIC ON COLORADO ,Retail Marijuana Store,Denver,Denver,08031,80222,2021-06-01,0
402R-00077,HIGH COUNTRY SUPPLY LLC,COLORADO HARVEST COMPANY,Retail Marijuana Store,Denver,Denver,08031,80223,2021-06-01,0
402R-00086,DP RETAIL 115 LLC,GREEN DRAGON,Retail Marijuana Store,Denver,Denver,08031,80206,2021-06-01,0
402R-00082,DISCOUNT MEDICAL MARIJUANA LLC,HIGH LEVEL HEALTH,Retail Marijuana Store,Denver,Denver,08031,80206,2021-06-01,0
402R-00083,DISCOUNT MEDICAL MARIJUANA LLC,HIGH LEVEL HEALTH,Retail Marijuana Store,Denver,Denver,08031,80203,2021-06-01,0
402R-00084,DENVER DISPENSARY LLC,DENVER DISPENSARY,Retail Marijuana Store,Denver,Denver,08031,80216,2021-06-01,0
402R-00075,BUD BUM LLC,BUDCARDI,Retail Marijuana Store,Denver,Denver,08031,80223,2021-06-01,0
402R-00076,MAGNA MARKETING INC,HERBS 4 YOU,Retail Marijuana Store,Denver,Denver,08031,80203,2021-06-01,0
402R-00085,LIVWELL X LLC,LIVWELL,Retail Marijuana Store,Denver,Denver,08031,80220,2021-06-01,0
402R-00087,CENTENNIAL DEVELOPMENT COMPANY LLC,THE HEALING TREE,Retail Marijuana Store,Denver,Denver,08031,80216,2021-06-01,0
402R-00095,TZ FINANCIAL LLC,HIGH COUNTRY HEALING,Retail Marijuana Store,Silverthorne,Summit,08117,80498,2021-06-01,0
402R-00091,ALPINE WELLNESS LLC,ALPINE WELLNESS,Retail Marijuana Store,Telluride,San Miguel,08113,81435,2021-06-01,0
402R-00092,HCH2 LLC,,Retail Marijuana Store,Alma,Park,08093,80420,2021-06-01,0
402R-00094,DP RETAIL 104 LLC,GREEN DRAGON,Retail Marijuana Store,Edgewater,Jefferson,08059,80214,2021-06-01,0
402R-00096,E2T2 LLC,COOKIES BROADWAY,Retail Marijuana Store,Denver,Denver,08031,80210,2021-06-01,0
402R-00103,GANJA GOURMET LLC,GANJA GOURMET,Retail Marijuana Store,Denver,Denver,08031,80210,2021-06-01,0
402R-00104,DELTA-9 DELIGHTS LLC,REEFER MADNESS,Retail Marijuana Store,Denver,Denver,08031,80216,2021-06-01,0
402R-00105,HG LTD,HIGHER GRADE,Retail Marijuana Store,Denver,Denver,08031,80204,2021-06-01,0
402R-00108,JEM DUTCH ACRES LLC,EARLS,Retail Marijuana Store,Leadville,Lake,08065,80461,2021-06-01,0
402R-00111,GREEN KIWI 2 LLC,LIVWELL,Retail Marijuana Store,Denver,Denver,08031,80249,2021-06-01,0
402R-00098,MEDICINAL WELLNESS CENTER LLC,OASIS CANNABIS SUPERSTORE,Retail Marijuana Store,Mountain View,Denver,08031,80212,2021-06-01,0
402R-00099,MEDICINAL WELLNESS CENTER LLC,OASIS CANNABIS SUPERSTORE,Retail Marijuana Store,Denver,Denver,08031,80222,2021-06-01,0
402R-00100,FRONT RANGE CANNABIS INC,ROCKY MOUNTAIN CANNABIS,Retail Marijuana Store,Denver,Denver,08031,80223,2021-06-01,0
402R-00101,SOLACE MEDS-BROADWAY LLC,,Retail Marijuana Store,Denver,Denver,08031,80210,2021-06-01,0
402R-00102,METRO CANNABIS INC,SILVER STEM FINE CANNABIS,Retail Marijuana Store,Denver,Denver,08031,80220,2021-06-01,0
402R-00112,GREEN KIWI 2 LLC,LIVWELL,Retail Marijuana Store,Denver,Denver,08031,80203,2021-06-01,0
402R-00106,LIGHTSHADE LABS LLC,LIGHTSHADE,Retail Marijuana Store,Denver,Arapahoe,08005,80247,2021-06-01,0
402R-00115,IGADI LTD,IGADI,Retail Marijuana Store,Idaho Springs,Clear Creek,08019,80452,2021-06-01,0
402R-00116,O LIMITED,SILVER STEM FINE CANNABIS,Retail Marijuana Store,Nederland,Boulder,08013,80466,2021-06-01,0
402R-00107,DP RETAIL 106 LLC,GREEN DRAGON COLORADO,Retail Marijuana Store,Breckenridge,Summit,08117,80424,2021-06-01,0
402R-00113,THE GIVING TREE OF DENVER LLC,,Retail Marijuana Store,Denver,Denver,08031,80211,2021-06-01,0
402R-00121,GM SANTA FE LLC,GOLDEN MEDS,Retail Marijuana Store,Denver,Denver,08031,80223,2021-06-01,0
402R-00126,CURE MEDICAL PHARM INC,RIVERROCK,Retail Marijuana Store,Denver,Denver,08031,80204,2021-06-01,0
402R-00127,GATSBY HOLDINGS LLC,BILLO,Retail Marijuana Store,Steamboat Springs,Routt,08107,80487,2021-06-01,0
402R-00122,HIGH PLAINZ STRAINS II LLC,,Retail Marijuana Store,Garden City,Weld,08123,80631,2021-06-01,0
402R-00123,PUEBLO WEST ORGANICS LLC,PUEBLO WEST ORGANICS,Retail Marijuana Store,Pueblo West,Pueblo,08101,81007,2021-06-01,0
402R-00124,TUMBLEWEED FRISCO LLC,TUMBLEWEED FRISCO,Retail Marijuana Store,Frisco,Summit,08117,80443,2021-06-01,0
402R-00125,RIVERROCK LLC,RIVERROCK,Retail Marijuana Store,Denver,Denver,08031,80216,2021-06-01,0
402R-00132,BOTANACARE LLC,BGOOD,Retail Marijuana Store,Northglenn,Adams,08001,80234,2021-06-01,0
402R-00133,SUMMIT WELLNESS,DEN-REC DENVER RECREATIONAL DISPENSARY,Retail Marijuana Store,Denver,Denver,08031,80205,2021-06-01,0
402R-00131,GEORGE TOWN CANNABIS INC,ROCKY MOUNTAIN CANNABIS,Retail Marijuana Store,Georgetown,Clear Creek,08019,80444,2021-06-01,0
402R-00134,TELLURIDE GREEN ROOM LLC,TELLURIDE GREEN ROOM,Retail Marijuana Store,Telluride,San Miguel,08113,81435,2021-06-01,0
402R-00130,LGK LLC,STRAWBERRY FIELDS,Retail Marijuana Store,Denver,Denver,08031,80231,2021-06-01,0
402R-00139,THE HERBAL CURE LLC,,Retail Marijuana Store,Denver,Denver,08031,80209,2021-06-01,0
402R-00140,SILVERPEAK CORP,,Retail Marijuana Store,Aspen,Pitkin,08097,81611,2021-06-01,0
402R-00135,JOIS LLC,SILVER STEM FINE CANNABIS,Retail Marijuana Store,Denver,Denver,08031,80236,2021-06-01,0
402R-00136,TUMBLEWEED STEAMBOAT LLC,RK ENTERPRISES ,Retail Marijuana Store,Steamboat Springs,Routt,08107,80487,2021-06-01,0
402R-00137,SILVERPEAK CORP,THE DAB BY SILVERPEAK - ORIGINAL,Retail Marijuana Store,Denver,Denver,08031,80219,2021-06-01,0
402R-00138,COLORADO PRODUCT SERVICES LLC,DOUBLE BLACK,Retail Marijuana Store,Carbondale,Garfield,08045,81623,2021-06-01,0
402R-00142,ARES STRATEGIES INC,TERRAPIN CARE STATION,Retail Marijuana Store,Denver,Denver,08031,80203,2021-06-01,0
402R-00145,TRI CITY PARTNERS LLC,STRAWBERRY FIELDS,Retail Marijuana Store,Dumont,Clear Creek,08019,80436,2021-06-01,0
402R-00144,CO-AGRONOMICS LLC,THE GREEN DEPOT,Retail Marijuana Store,Denver,Denver,08031,80210,2021-06-01,0
402R-00151,ALTERNATIVE HOLISTIC HEALING LLC,ROCKY MOUNTAIN ORGANICS,Retail Marijuana Store,Black Hawk,Gilpin,08047,80422,2021-06-01,0
402R-00146,PHYSICIAN PREFERRED PRODUCTS LLC,DOCS APOTHECARY,Retail Marijuana Store,Northglenn,Adams,08001,80233,2021-06-01,0
402R-00148,MAKENA UNLIMITED LLC,MAKENA,Retail Marijuana Store,Denver,Denver,08031,80210,2021-06-01,0
402R-00147,SUNRISE SOLUTIONS,,Retail Marijuana Store,Bailey,Park,08093,80421,2021-06-01,0
402R-00153,SOLACE MEDS OF WHEAT RIDGE LLC,,Retail Marijuana Store,Wheat Ridge,Jefferson,08059,80033,2021-06-01,0
402R-00160,ASPEN P&P LLC,EUFLORA,Retail Marijuana Store,Aspen,Pitkin,08097,81611,2021-06-01,0
402R-00154,MEDICAL MJ SUPPLY LLC,BEST COLORADO CANNABIS,Retail Marijuana Store,Wheat Ridge,Jefferson,08059,80033,2021-06-01,0
402R-00157,COLORADO CANNABIS ASSOCIATES LLC,THE SPOT,Retail Marijuana Store,Pueblo West,Pueblo,08101,81007,2021-06-01,0
402R-00155,MOUNTAIN ANNIES LLC,,Retail Marijuana Store,Ridgway,Ouray,08091,81432,2021-06-01,0
402R-00159,EAGLE RIVER INVESTMENTS LLC,MEADOWS,Retail Marijuana Store,Denver,Denver,08031,80210,2021-06-01,0
402R-00149,NEW WORLD ALTERNATIVE HEALTHCARE LLC,TELLURIDE BUD COMPANY,Retail Marijuana Store,Telluride,San Miguel,08113,81435,2021-06-01,0
402R-00150,FLOWER POWER BOTANICALS LLC,,Retail Marijuana Store,Fort Collins,Larimer,08069,80524,2021-06-01,0
402R-00152,GMC LLC,GREEN MAN CANNABIS,Retail Marijuana Store,Denver,Denver,08031,80204,2021-06-01,0
402R-00164,GM BROADWAY LLC,GOLDEN MEDS,Retail Marijuana Store,Denver,Denver,08031,80219,2021-06-01,0
402R-00165,GM BROADWAY LLC,GOLDEN MEDS,Retail Marijuana Store,Denver,Denver,08031,80210,2021-06-01,0
402R-00166,BEYOND BROADWAY LLC,LIVWELL,Retail Marijuana Store,Denver,Denver,08031,80209,2021-06-01,0
402R-00161,MOUNTAIN MEDICINALS INC,MOUNTAIN MEDICINALS RETAIL CENTER,Retail Marijuana Store,Idaho Springs,Clear Creek,08019,80452,2021-06-01,0
402R-00168,LIVWELL III LLC,LIVWELL,Retail Marijuana Store,Denver,Denver,08031,80223,2021-06-01,0
402R-00169,CANNABIS CARE WELLNESS CENTERS LLC,SMOKEYS,Retail Marijuana Store,Garden City,Weld,08123,80631,2021-06-01,0
402R-00171,D AND C MEDICAL MARIJUANA LLC,GOLDEN LEAF,Retail Marijuana Store,Steamboat Springs,Routt,08107,80487,2021-06-01,0
402R-00167,DENVER PATIENTS GROUP LLC,LIVWELL,Retail Marijuana Store,Denver,Denver,08031,80205,2021-06-01,0
402R-00174,DP RETAIL 105 LLC,GREEN DRAGON,Retail Marijuana Store,Glenwood Springs,Garfield,08045,81601,2021-06-01,0
402R-00170,PBVILLE LLC,FLOYD'S FINE CANNABIS,Retail Marijuana Store,Leadville,Lake,08065,80461,2021-06-01,0
402R-00176,KARING KIND LLC,KARING KIND,Retail Marijuana Store,Boulder,Boulder,08013,80302,2021-06-01,0
402R-00173,BOULDER RX LLC,NATIVE ROOTS BOULDER,Retail Marijuana Store,Boulder,Boulder,08013,80302,2021-06-01,0
402R-00177,SBUD LLC,STAR BUDS,Retail Marijuana Store,Pueblo West,Pueblo,08101,81007,2021-06-01,0
402R-00181,BRECKENRIDGE ORGANIC THERAPY LLC,,Retail Marijuana Store,Breckenridge,Summit,08117,80424,2021-06-01,0
402R-00175,ARTEMIS STRATEGIES INC,TERRAPIN CARE STATION,Retail Marijuana Store,Boulder,Boulder,08013,80302,2021-06-01,0
402R-00179,COLORADO CANNABIS COMPANY LLC,PURE MARIJUANA DISPENSARY,Retail Marijuana Store,Edgewater,Jefferson,08059,80214,2021-06-01,0
402R-00180,DJR COLORADO LLC,HIGH LEVEL HEALTH,Retail Marijuana Store,Dumont,Clear Creek,08019,80436,2021-06-01,0
402R-00184,OPTIONS CANNABIS CO LTD,OPTIONS,Retail Marijuana Store,Wheat Ridge,Jefferson,08059,80033,2021-06-01,0
402R-00182,DELILAH LLC,DELILAH LLC,Retail Marijuana Store,Telluride,San Miguel,08113,81435,2021-06-01,0
402R-00188,ALPINE RAVEN INC,MAIKOH HOLISTICS,Retail Marijuana Store,Boulder,Boulder,08013,80304,2021-06-01,0
402R-00190,DP RETAIL 111 LLC,GREEN DRAGON,Retail Marijuana Store,Boulder,Boulder,08013,80301,2021-06-01,0
402R-00186,SERENITY MOON WELLNESS CENTER LLC,FROSTED LEAF,Retail Marijuana Store,Denver,Denver,08031,80209,2021-06-01,0
402R-00192,FOX STREET WELLNESS LLC,FOX CANNABIS,Retail Marijuana Store,Denver,Denver,08031,80216,2021-06-01,0
402R-00189,DP RETAIL 108 LLC,GREEN DRAGON COLORADO,Retail Marijuana Store,Glenwood Springs,Garfield,08045,81601,2021-06-01,0
402R-00187,ALPINE HERBAL WELLNESS LLC,FROSTED LEAF,Retail Marijuana Store,Denver,Denver,08031,80204,2021-06-01,0
402R-00193,FRESH BAKED LLC,FRESH BAKED ,Retail Marijuana Store,Boulder,Boulder,08013,80302,2021-06-01,0
402R-00191,PG RETAIL I LLC,LACONTE'S CLONE BAR & DISPENSARY,Retail Marijuana Store,Denver,Denver,08031,80216,2021-06-01,0
402R-00194,LIVWELL I LLC,LIVWELL,Retail Marijuana Store,Garden City,Weld,08123,80631,2021-06-01,0
402R-00200,COLORADO KIND CARE LLC,THE VILLAGE GREEN SOCIETY,Retail Marijuana Store,Boulder,Boulder,08013,80302,2021-06-01,0
402R-00196,THE ORGANIC SEED LLC,CANNASSEUR,Retail Marijuana Store,Pueblo West,Pueblo,08101,81007,2021-06-01,0
402R-00198,OPTIONS MEDICAL CENTER LLC,ELEMENTS,Retail Marijuana Store,Boulder,Boulder,08013,80303,2021-06-01,0
402R-00199,OPTIONS CANNABIS CO LTD,OPTIONS,Retail Marijuana Store,Boulder,Boulder,08013,80303,2021-06-01,0
402R-00203,COMPASSIONATE PAIN MANAGEMENT LLC,AJOYA,Retail Marijuana Store,Louisville,Boulder,08013,80027,2021-06-01,0
402R-00205,CRESTED BUTTE INVESTMENTS LLC,THE DISPENSARY,Retail Marijuana Store,Crested Butte,Gunnison,08051,81224,2021-06-01,0
402R-00207,L'EAGLE SERVICES LLC,L'EAGLE,Retail Marijuana Store,Denver,Denver,08031,80223,2021-06-01,0
402R-00212,GREEN MEDICINE LLC,THE GREEN JOINT,Retail Marijuana Store,Glenwood Springs,Garfield,08045,81601,2021-06-01,0
402R-00208,SUSTAINABLE HEALTH LLC,14er HOLISTICS,Retail Marijuana Store,Boulder,Boulder,08013,80301,2021-06-01,0
402R-00209,DP RETAIL 109 LLC,GREEN DRAGON,Retail Marijuana Store,Aspen,Pitkin,08097,81611,2021-06-01,0
402R-00210,SKINNY PINEAPPLE INC,THE FARM,Retail Marijuana Store,Boulder,Boulder,08013,80301,2021-06-01,0
402R-00211,SWEET LEAF PIONEER LLC,,Retail Marijuana Store,Eagle,Eagle,08037,81631,2021-06-01,0
402R-00214,SBUD LLC,STARBUDS,Retail Marijuana Store,Louisville,Boulder,08013,80027,2021-06-01,0
402R-00217,BEDDOR CLAUDE LLC,CHRONIC THERAPY,Retail Marijuana Store,Wheat Ridge,Jefferson,08059,80215,2021-06-01,0
402R-00215,HERBAL WELLNESS LLC,HERBAL WELLNESS LLC,Retail Marijuana Store,Lafayette,Boulder,08013,80026,2021-06-01,0
402R-00218,GAS AND GRASS LLC,ROLLUP,Retail Marijuana Store,Denver,Denver,08031,80216,2021-06-01,0
402R-00220,ORGANIC ALTERNATIVES INC,ORGANIC ALTERNATIVES,Retail Marijuana Store,Fort Collins,Larimer,08069,80524,2021-06-01,0
402R-00219,MAGGIES FARM LLC,MAGGIES FARM,Retail Marijuana Store,Pueblo West,Pueblo,08101,81007,2021-06-01,0
402R-00221,J&R PARTNERS LLC,NATIVE ROOTS VAIL,Retail Marijuana Store,Avon,Eagle,08037,81620,2021-06-01,0
402R-00223,VENDING BY A & A LLC,NATURE'S OF SEDGWICK,Retail Marijuana Store,Sedgwick,Sedgwick,08115,80749,2021-06-01,0
402R-00224,PLATTE VALLEY DISPENSARY LLC,PLATTE VALLEY DISPENSARY,Retail Marijuana Store,Denver,Denver,08031,80211,2021-06-01,0
402R-00222,WESTSIDE WELLNESS CENTER LLC,MAGGIES FARM ,Retail Marijuana Store,Pueblo,Pueblo,08101,81006,2021-06-01,0
402R-00226,ROCKY ROAD REMEDIES LLC,ROCKY ROAD VAIL,Retail Marijuana Store,Avon,Eagle,08037,81620,2021-06-01,0
402R-00230,CANNABIS CORP,THE JOINT BY CANNABIS,Retail Marijuana Store,Denver,Denver,08031,80212,2021-06-01,0
402R-00229,MAGGIES FARM LLC,MAGGIES FARM,Retail Marijuana Store,Manitou Springs,El Paso,08041,80829,2021-06-01,0
402R-00228,PG RETAIL I LLC,BACKCOUNTRY CANNABIS COMPANY,Retail Marijuana Store,Crested Butte,Gunnison,08051,81224,2021-06-01,0
402R-00236,BBM ENTERPRISES LLC,HELPING HANDS CANNABIS,Retail Marijuana Store,Boulder,Boulder,08013,80302,2021-06-01,0
402R-00232,ACADEMY OF THE HEALING ARTS LLC,HIGH VALLEY RETAIL CANNABIS,Retail Marijuana Store,Moffat,Saguache,08109,81143,2021-06-01,0
402R-00235,LIVWELL VII LLC,LIVWELL,Retail Marijuana Store,Fort Collins,Larimer,08069,80524,2021-06-01,0
402R-00238,SOLACE MEDS COLFAX LLC,,Retail Marijuana Store,Denver,Denver,08031,80220,2021-06-01,0
402R-00237,ABUNDANT HEALTH DENVER LLC,HERBAN UNDERGROUND,Retail Marijuana Store,Denver,Denver,08031,80203,2021-06-01,0
402R-00240,SERENITY MOON WELLNESS CENTER LLC,FROSTED LEAF,Retail Marijuana Store,Denver,Denver,08031,80220,2021-06-01,0
402R-00242,RFSCEV LLC,ROOTSRX,Retail Marijuana Store,Avon,Eagle,08037,81620,2021-06-01,0
402R-00239,SOLACE MEDS LLC,,Retail Marijuana Store,Fort Collins,Larimer,08069,80525,2021-06-01,0
402R-00241,PG RETAIL I LLC,NATURES MEDICINE,Retail Marijuana Store,Salida,Chaffee,08015,81201,2021-06-01,0
402R-00243,DURANGO ORGANICS LLP,,Retail Marijuana Store,Durango,La Plata,08067,81303,2021-06-01,0
402R-00245,CCC INC,THE HAPPY CAMPER CANNABIS COMPANY,Retail Marijuana Store,Bailey,Park,08093,80421,2021-06-01,0
402R-00246,RFSCB LLC,ROOTSRX,Retail Marijuana Store,Basalt,Eagle,08037,81621,2021-06-01,0
402R-00247,HGS LLC,HIGH GRADE SPECIALISTS,Retail Marijuana Store,Pagosa Springs,Archuleta,08007,81147,2021-06-01,0
402R-00248,SUN HOUSE SALIDA LLC,SUN HOUSE,Retail Marijuana Store,Salida,Chaffee,08015,81201,2021-06-01,0
402R-00249,GM INC,GREEN WORLD,Retail Marijuana Store,Fort Garland,Costilla,08023,81133,2021-06-01,0
402R-00251,SISSCO LLC,TRENCHTOWN,Retail Marijuana Store,Denver,Jefferson,08059,80214,2021-06-01,0
402R-00259,RIFLE REMEDIES LLC,GREEN CROSS SILT,Retail Marijuana Store,Silt,Garfield,08045,81652,2021-06-01,0
402R-00262,SMOKING GUN LLC,SMOKIN GUN APOTHECARY,Retail Marijuana Store,Glendale,Denver,08031,80246,2021-06-01,0
402R-00261,ANIMAS HERBAL WELLNESS CENTER INC,PROHIBITION HERB,Retail Marijuana Store,Durango,La Plata,08067,81301,2021-06-01,0
402R-00252,LARSEN GROUP LLC,THE GREEN STOP,Retail Marijuana Store,Log Lane Village,Morgan,08087,80705,2021-06-01,0
402R-00253,SILVERPEAK CORP,THE DAB BY SILVERPEAK - DOWNTOWN,Retail Marijuana Store,Denver,Denver,08031,80205,2021-06-01,0
402R-00255,ELITE ORGANICS LLC,ELITE ORGANICS ,Retail Marijuana Store,Fort Collins,Larimer,08069,80524,2021-06-01,0
402R-00263,J and J ENTERPRISES INC,PAGOSA THERAPEUTICS,Retail Marijuana Store,Pagosa Springs,Archuleta,08007,81147,2021-06-01,0
402R-00267,SBUD LLC,STARBUDS ,Retail Marijuana Store,Aurora,Arapahoe,08005,80010,2021-06-01,0
402R-00275,SWEETWATER PARTNERS LLC,GOOD CHEMISTRY,Retail Marijuana Store,Aurora,Arapahoe,08005,80013,2021-06-01,0
402R-00264,KENDALL MOUNTAIN LLC,SILVERTON GREEN WORKS,Retail Marijuana Store,Silverton,San Juan,08111,81433,2021-06-01,0
402R-00271,TRINIDADS HIGHER CALLING U LLC,,Retail Marijuana Store,Trinidad,Las Animas,08071,81082,2021-06-01,0
402R-00269,APOGEE MANAGEMENT INC,TERRAPIN CARE STATION,Retail Marijuana Store,Aurora,Arapahoe,08005,80012,2021-06-01,0
402R-00270,ROCKY MOUNTAIN BLISS INC,ROCKY MOUNTAIN CANNABIS,Retail Marijuana Store,Ridgway,Ouray,08091,81432,2021-06-01,0
402R-00293,LIGHTSHADE LABS LLC,LIGHTSHADE,Retail Marijuana Store,Aurora,Arapahoe,08005,80010,2021-06-01,0
402R-00290,LIVWELL X LLC,LIVWELL,Retail Marijuana Store,Aurora,Adams,08001,80011,2021-06-01,0
402R-00296,FUTUREVISION LTD,MEDICINE MAN AURORA,Retail Marijuana Store,Aurora,Arapahoe,08005,80014,2021-06-01,0
402R-00297,THE GREEN SOLUTION LLC,,Retail Marijuana Store,Aurora,Arapahoe,08005,80012,2021-06-01,0
402R-00304,JS INVESTMENTS AURORA LLC,EUFLORA,Retail Marijuana Store,Aurora,Arapahoe,08005,80016,2021-06-01,0
402R-00305,JS INVESTMENTS AURORA LLC,EUFLORA,Retail Marijuana Store,Aurora,Arapahoe,08005,80015,2021-06-01,0
402R-00298,THE GREEN SOLUTION LLC,,Retail Marijuana Store,Edgewater,Jefferson,08059,80214,2021-06-01,0
402R-00299,THE GREEN SOLUTION LLC,,Retail Marijuana Store,Silver Plume,Clear Creek,08019,80476,2021-06-01,0
402R-00300,THE GREEN SOLUTION LLC,,Retail Marijuana Store,Aurora,Arapahoe,08005,80014,2021-06-01,0
402R-00307,RRAW LLC,ROCKY ROAD AURORA,Retail Marijuana Store,Aurora,Arapahoe,08005,80017,2021-06-01,0
402R-00301,TREATMENTS UNLIMITED LLC,ALTITUDE AURORA,Retail Marijuana Store,Aurora,Arapahoe,08005,80010,2021-06-01,0
402R-00302,THE GREEN SOLUTION LLC,,Retail Marijuana Store,Aurora,Arapahoe,08005,80010,2021-06-01,0
402R-00303,THE GREEN SOLUTION LLC,,Retail Marijuana Store,Aurora,Adams,08001,80011,2021-06-01,0
402R-00318,KUSH GARDENS LLC,,Retail Marijuana Store,De Beque,Mesa,08077,81630,2021-06-01,0
402R-00316,SBUD LLC,STARBUDS,Retail Marijuana Store,Aurora,Arapahoe,08005,80016,2021-06-01,0
402R-00311,BROW ACQUISITIONS AURORA LLC,XCLUSIVE CANNABIS,Retail Marijuana Store,Aurora,Adams,08001,80011,2021-06-01,0
402R-00312,EMPIRE DEVELOPMENT INC,ROCKY MOUNTAIN CANNABIS,Retail Marijuana Store,Fraser,Grand,08049,80442,2021-06-01,0
402R-00317,HIGH COUNTRY SUPPLY LLC,COLORADO HARVEST COMPANY,Retail Marijuana Store,Aurora,Arapahoe,08005,80014,2021-06-01,0
402R-00323,DP RETAIL 114 LLC,GREEN DRAGON,Retail Marijuana Store,Aurora,Adams,08001,80011,2021-06-01,0
402R-00327,MAGNOLIA ROAD INC,MAGNOLIA ROAD CANNABIS COMPANY,Retail Marijuana Store,Boulder,Boulder,08013,80301,2021-06-01,0
402R-00352,LIVWELL VI LLC,LIVWELL,Retail Marijuana Store,Trinidad,Las Animas,08071,81082,2021-06-01,0
402R-00336,INDOOR HORTICULTURE CENTERS LLC,SANTE ALTERNATIVE WELLNESS,Retail Marijuana Store,Durango,La Plata,08067,81301,2021-06-01,0
402R-00337,PG RETAIL I LLC,NATURE'S MEDICINE,Retail Marijuana Store,Northglenn,Adams,08001,80234,2021-06-01,0
402R-00332,HQ LLC,HIGH Q SILT,Retail Marijuana Store,Silt,Garfield,08045,81652,2021-06-01,0
402R-00333,LIVWELL X LLC,LIVWELL,Retail Marijuana Store,Aurora,Adams,08001,80011,2021-06-01,0
402R-00334,APOGEE MANAGEMENT INC,TERRAPIN CARE STATION,Retail Marijuana Store,Aurora,Arapahoe,08005,80010,2021-06-01,0
402R-00335,RJJ EDGEWATER LLC,NATIVE ROOTS EDGEWATER,Retail Marijuana Store,Edgewater,Jefferson,08059,80214,2021-06-01,0
402R-00341,NATURES HERBS & WELLNESS CENTER II LLC,,Retail Marijuana Store,Log Lane Village,Morgan,08087,80705,2021-06-01,0
402R-00344,MAMMOTH DURANGO LLC,MAMMOTH FARMS,Retail Marijuana Store,Denver,Denver,08031,80219,2021-06-01,0
402R-00340,PEAK HOLDINGS GROUP LLC,PEAK DISPENSARY,Retail Marijuana Store,Denver,Denver,08031,80203,2021-06-01,0
402R-00343,THE ACCEPTUS GROUP LLC,THE COLORADO GROW COMPANY,Retail Marijuana Store,Durango,La Plata,08067,81301,2021-06-01,0
402R-00345,DENCO LLC,,Retail Marijuana Store,Denver,Denver,08031,80216,2021-06-01,0
402R-00354,IGADI LTD,IGADI,Retail Marijuana Store,Tabernash,Grand,08049,80478,2021-06-01,0
402R-00355,GREEN KIWI 4 LLC,LIVWELL,Retail Marijuana Store,Cortez,Montezuma,08083,81321,2021-06-01,0
402R-00356,GREEN KIWI 5 LLC,LIVWELL,Retail Marijuana Store,Mancos,Montezuma,08083,81328,2021-06-01,0
402R-00362,RFSCLV LLC,ROOTSRX,Retail Marijuana Store,Leadville,Lake,08065,80461,2021-06-01,0
402R-00358,BBM ENTERPRISES LLC,THE BUD DEPOT,Retail Marijuana Store,Lyons,Boulder,08013,80540,2021-06-01,0
402R-00364,PI AURORA LLC,LOVA AURORA,Retail Marijuana Store,Aurora,Arapahoe,08005,80015,2021-06-01,0
402R-00359,NATURES GIFT SHOP LLC,,Retail Marijuana Store,Pueblo West,Pueblo,08101,81007,2021-06-01,0
402R-00360,LIGHTSHADE LABS LLC,LIGHTSHADE ,Retail Marijuana Store,Denver,Jefferson,08059,80232,2021-06-01,0
402R-00361,CANNABIS FOR HEALTH LLC,PIG N' WHISTLE,Retail Marijuana Store,Denver,Denver,08031,80204,2021-06-01,0
402R-00363,RJJ FRISCO LLC,NATIVE ROOTS FRISCO,Retail Marijuana Store,Frisco,Summit,08117,80443,2021-06-01,0
402R-00365,BRECKENRIDGE INVESTMENTS LLC,ALPENGLOW ,Retail Marijuana Store,Dillon,Summit,08117,80435,2021-06-01,0
402R-00366,SISTEM FRASER LLC,SILVER STEM FINE CANNABIS,Retail Marijuana Store,Fraser,Grand,08049,80442,2021-06-01,0
402R-00367,ZENGOLDS LLC,,Retail Marijuana Store,Longmont,Boulder,08013,80503,2021-06-01,0
402R-00368,RJJ HIGHLANDS LLC,NATIVE ROOTS HIGHLANDS,Retail Marijuana Store,Denver,Denver,08031,80211,2021-06-01,0
402R-00369,ELK MOUNTAIN TRADING POST LLC,ELK MOUNTAIN TRADING POST LLC,Retail Marijuana Store,De Beque,Mesa,08077,81630,2021-06-01,0
402R-00370,KIND LOVE LLC,KIND LOVE,Retail Marijuana Store,Glendale,Denver,08031,80246,2021-06-01,0
402R-00376,RESERVE1 LLC,EMERALD FIELDS,Retail Marijuana Store,Glendale,Denver,08031,80246,2021-06-01,0
402R-00371,CANNA COMPANY,CANNACO,Retail Marijuana Store,Trinidad,Las Animas,08071,81082,2021-06-01,0
402R-00372,SOUTHERN COLORADO THERAPEUTICS INC,HIGHLAND HEALTH,Retail Marijuana Store,Trinidad,Las Animas,08071,81082,2021-06-01,0
402R-00373,GMC LLC,GREEN MAN CANNABIS,Retail Marijuana Store,Denver,Denver,08031,80224,2021-06-01,0
402R-00374,THE GREEN SOLUTION LLC,,Retail Marijuana Store,Black Hawk,Gilpin,08047,80422,2021-06-01,0
402R-00375,RESERVE1 MANITOU LLC,EMERALD FIELDS,Retail Marijuana Store,Manitou Springs,El Paso,08041,80829,2021-06-01,0
402R-00377,DP RETAIL 103 LLC,GREEN DRAGON,Retail Marijuana Store,Aurora,Arapahoe,08005,80015,2021-06-01,0
402R-00383,COLORADO CANNABIS ASSOCIATES LLC,THE SPOT,Retail Marijuana Store,Trinidad,Las Animas,08071,81082,2021-06-01,0
402R-00379,RJJ ASPEN LLC,NATIVE ROOTS ASPEN,Retail Marijuana Store,Aspen,Pitkin,08097,81611,2021-06-01,0
402R-00380,RJJ SHERIDAN LLC,NATIVE ROOTS LITTLETON,Retail Marijuana Store,Denver,Jefferson,08059,80123,2021-06-01,0
402R-00381,TENDERFOOT HEALTH COLLECTIVE,,Retail Marijuana Store,Salida,Chaffee,08015,81201,2021-06-01,0
402R-00382,1917 SANTA FE LLC,APOTHECARY FARMS,Retail Marijuana Store,Pueblo,Pueblo,08101,81006,2021-06-01,0
402R-00385,TWOG-WALNUT LLC,BUDDY BOY,Retail Marijuana Store,Denver,Denver,08031,80205,2021-06-01,0
402R-00412,TWOG-YORK LLC,BUDDY BOY,Retail Marijuana Store,Denver,Denver,08031,80216,2021-06-01,0
402R-00386,3B-38 LLC,BUDDY BOY,Retail Marijuana Store,Denver,Denver,08031,80212,2021-06-01,0
402R-00387,DP RETAIL 113 LLC,GREEN DRAGON,Retail Marijuana Store,Mountain View,Denver,08031,80212,2021-06-01,0
402R-00388,DURANGO ORGANICS LLP,DO CORTEZ ,Retail Marijuana Store,Cortez,Montezuma,08083,81321,2021-06-01,0
402R-00399,WELLNESS CENTER OF THE ROCKIES INC,THE CENTER,Retail Marijuana Store,Denver,Denver,08031,80224,2021-06-01,0
402R-00396,COLORADO CANNABIS COMPANY LLC,PURE MARIJUANA DISPENSARY,Retail Marijuana Store,Denver,Denver,08031,80204,2021-06-01,0
402R-00400,PIONEER INTERESTS COLFAX LLC,LOVA COLFAX,Retail Marijuana Store,Denver,Denver,08031,80206,2021-06-01,0
402R-00389,M&M DISTRIBUTING LLC,,Retail Marijuana Store,Trinidad,Las Animas,08071,81082,2021-06-01,0
402R-00390,MOUNTAIN ANNIES LLC,MEDICINE MAN OF CORTEZ,Retail Marijuana Store,Cortez,Montezuma,08083,81321,2021-06-01,0
402R-00404,DURANGO ALTERNATIVE LLC,ROCKY MOUNTAIN HIGH,Retail Marijuana Store,Durango,La Plata,08067,81301,2021-06-01,0
402R-00402,NEW WORLD ALTERNATIVE HEALTHCARE LLC,TELLURIDE BUD COMPANY,Retail Marijuana Store,Durango,La Plata,08067,81301,2021-06-01,0
402R-00394,MODERN MEDICINE LLC,ALTITUDE ORGANIC CANNABIS,Retail Marijuana Store,Dillon,Summit,08117,80435,2021-06-01,0
402R-00405,VAIL BUD BREWERY LLC,HIGH COUNTRY HEALING 8,Retail Marijuana Store,Avon,Eagle,08037,81620,2021-06-01,0
402R-00408,PG RETAIL I LLC,LACONTE'S CLONE BAR & DISPENSARY,Retail Marijuana Store,Denver,Denver,08031,80203,2021-06-01,0
402R-00409,THE OUNCE DEPOT LLC,THE FARMERS MARKET,Retail Marijuana Store,Denver,Denver,08031,80231,2021-06-01,0
402R-00410,SBUD LLC,STAR BUDS,Retail Marijuana Store,Pueblo,Pueblo,08101,81005,2021-06-01,0
402R-00406,APEX INDUSTRIES INC,HARVEST HOUSE,Retail Marijuana Store,Nederland,Boulder,08013,80466,2021-06-01,0
402R-00419,MILE HIGH DISPENSARY LLC,MILE HIGH DISPENSARY,Retail Marijuana Store,Denver,Jefferson,08059,80232,2021-06-01,0
402R-00415,FOURTH TURNING INVESTMENTS LLC,,Retail Marijuana Store,Boulder,Boulder,08013,80303,2021-06-01,0
402R-00422,GREEN STREET DISPENSARY LLC,THE GREENERY,Retail Marijuana Store,Durango,La Plata,08067,81303,2021-06-01,0
402R-00416,RJJ LONGMONT LLC,NATIVE ROOTS LONGMONT,Retail Marijuana Store,Longmont,Boulder,08013,80501,2021-06-01,0
402R-00417,920104 LLC,CALLIES,Retail Marijuana Store,Northglenn,Adams,08001,80234,2021-06-01,0
402R-00421,FARAGOSI FARMS INC,FARAGOSI FARMS,Retail Marijuana Store,Trinidad,Las Animas,08071,81082,2021-06-01,0
402R-00353,THA CORP,THE HERBAL ALTERNATIVE,Retail Marijuana Store,Cortez,Montezuma,08083,81321,2021-06-01,0
402R-00430,GREEN AROUND YOU MERGERCO LLC,GOLDEN MEDS,Retail Marijuana Store,Denver,Denver,08031,80224,2021-06-01,0
402R-00429,LA CASA CANNA BIS INC,,Retail Marijuana Store,San Luis,Costilla,08023,81152,2021-06-01,0
402R-00424,COLORADO BEST BUDZ LLC,,Retail Marijuana Store,Pueblo,Pueblo,08101,81006,2021-06-01,0
402R-00432,THE CULTURED FAMILY LLC,THE CULTURED CANNABIS CO,Retail Marijuana Store,Mancos,Montezuma,08083,81328,2021-06-01,0
402R-00434,RJJ DILLON LLC,NATIVE ROOTS DILLON,Retail Marijuana Store,Dillon,Summit,08117,80435,2021-06-01,0
402R-00438,505 CENTER LLC,PURE MARIJUANA DISPENSARY ,Retail Marijuana Store,Denver,Denver,08031,80216,2021-06-01,0
402R-00413,DURANGO ORGANICS LLP,DO CRESTED BUTTE,Retail Marijuana Store,Crested Butte,Gunnison,08051,81224,2021-06-01,0
402R-00444,GORULE INC,ROCKY MOUNTAIN BLAZE,Retail Marijuana Store,Pueblo West,Pueblo,08101,81007,2021-06-01,0
402R-00257,NEW HOPE WELLNESS CENTER LLC,TUMBLEWEED DISPENSARY EDWARDS,Retail Marijuana Store,Edwards,Eagle,08037,81632,2021-06-01,0
402R-00445,MILE HIGH WELLNESS II LLC,MILE HIGH WELLNESS-GREEN STREET,Retail Marijuana Store,Denver,Denver,08031,80223,2021-06-01,0
402R-00446,SBUD LLC,STARBUDS,Retail Marijuana Store,Denver,Adams,08001,80221,2021-06-01,0
402R-00450,ALTERNATIVE HOLISTIC HEALING LLC,ROCKY MOUNTAIN ORGANICS ,Retail Marijuana Store,Central City,Gilpin,08047,80427,2021-06-01,0
402R-00449,PG RETAIL I LLC,MILE HIGH GREEN CROSS,Retail Marijuana Store,Denver,Denver,08031,80203,2021-06-01,0
402R-00455,MOUNTAIN ANNIES LLC,,Retail Marijuana Store,Silverton,San Juan,08111,81433,2021-06-01,0
402R-00454,GREEN KIWI 1 LLC,LIVWELL,Retail Marijuana Store,Denver,Denver,08031,80207,2021-06-01,0
402R-00457,HADCAV ENTERPRISES INC,PURE MARIJUANA DISPENSARY,Retail Marijuana Store,Denver,Denver,08031,80220,2021-06-01,0
402R-00458,URBAN HEALTH & WELLNESS INC,URBAN DISPENSARY,Retail Marijuana Store,Denver,Denver,08031,80211,2021-06-01,0
402R-00461,IGADI LTD,IGADI,Retail Marijuana Store,Nederland,Boulder,08013,80466,2021-06-01,0
402R-00463,BUD HUT INC,BUD HUT INC,Retail Marijuana Store,Walsenburg,Huerfano,08055,81089,2021-06-01,0
402R-00465,COLORADO CANNABIS COMPANY LLC,PURE MARIJUANA DISPENSARY,Retail Marijuana Store,Denver,Denver,08031,80216,2021-06-01,0
402R-00418,BK HOLDINGS LLC,THE HERBAL CENTER,Retail Marijuana Store,Denver,Denver,08031,80239,2021-06-01,0
402R-00467,TUMBLEWEED CARBONDALE LLC,TUMBLEWEED CARBONDALE,Retail Marijuana Store,Carbondale,Garfield,08045,81623,2021-06-01,0
402R-00460,YUMA WAY LLC,CHERRY PEAK,Retail Marijuana Store,Glendale,Denver,08031,80246,2021-06-01,0
402R-00462,MARTINS NATURAL MEDICINALS LLC,,Retail Marijuana Store,Glenwood Springs,Garfield,08045,81601,2021-06-01,0
402R-00475,GARDEN GREENS LLC,STRAWBERRY FIELDS,Retail Marijuana Store,Pueblo,Pueblo,08101,81003,2021-06-01,0
402R-00477,NATURAL ALTERNATIVES FOR HEALTH CORP,,Retail Marijuana Store,Fort Collins,Larimer,08069,80525,2021-06-01,0
402R-00474,THE GREEN SOLUTION LLC,,Retail Marijuana Store,Denver,Adams,08001,80221,2021-06-01,0
402R-00476,AGRICULTURAL ADVANTAGES LLC,LUCKY MONKEY BUDS,Retail Marijuana Store,Trinidad,Las Animas,08071,81082,2021-06-01,0
402R-00479,LIGHTSHADE LABS LLC,LIGHTSHADE,Retail Marijuana Store,Denver,Denver,08031,80203,2021-06-01,0
402R-00480,MOUNTAIN ANNIES LLC,,Retail Marijuana Store,Durango,La Plata,08067,81301,2021-06-01,0
402R-00481,IEROS LLC,LIFE FLOWER DISPENSARY LLC,Retail Marijuana Store,Glendale,Denver,08031,80246,2021-06-01,0
402R-00487,RFSCA LLC,ROOTSRX,Retail Marijuana Store,Aspen,Pitkin,08097,81611,2021-06-01,0
402R-00486,OSIRIS LLC,BEST DAY EVER,Retail Marijuana Store,Glenwood Springs,Garfield,08045,81601,2021-06-01,0
402R-00488,HIGH PLAINS STRAINS LLC,HIGH PLAINZ STRAINS & DISPENSARY LLC,Retail Marijuana Store,Log Lane Village,Morgan,08087,80705,2021-06-01,0
402R-00489,IGADI LTD,IGADI,Retail Marijuana Store,Central City,Gilpin,08047,80427,2021-06-01,0
402R-00482,ACADEMY OF THE HEALING ARTS LLC,HIGH VALLEY ANTONITO RETAIL CANNABIS,Retail Marijuana Store,Antonito,Conejos,08021,81120,2021-06-01,0
402R-00483,VILLAGE RETAIL LLC,BLUE HERON DISPENSARY,Retail Marijuana Store,Oak Creek,Routt,08107,80467,2021-06-01,0
402R-00484,RJJ SANTA FE LLC,NATIVE ROOTS SANTA FE,Retail Marijuana Store,Denver,Denver,08031,80223,2021-06-01,0
402R-00492,GREEN FIELDS LLC,GREENFIELDS,Retail Marijuana Store,Denver,Denver,08031,80223,2021-06-01,0
402R-00494,STONE T.M.C. LLC,THE STONE,Retail Marijuana Store,Denver,Denver,08031,80219,2021-06-01,0
402R-00495,MJLQ LLC,GREEN RINO,Retail Marijuana Store,Denver,Denver,08031,80216,2021-06-01,0
402R-00493,RJJ ADAMS LLC,NATIVE ROOTS NORTH DENVER,Retail Marijuana Store,Denver,Denver,08031,80216,2021-06-01,0
402R-00496,FREEDOM ROAD GARDEN LTD,FREEDOM ROAD,Retail Marijuana Store,Trinidad,Las Animas,08071,81082,2021-06-01,0
402R-00498,SHRED INVESTMENTS LLC,HIGH WEST CANNABIS,Retail Marijuana Store,Denver,Denver,08031,80239,2021-06-01,0
402R-00497,WASH PARK BOUTIQUE LLC,LUCY SKY CANNABIS BOUTIQUE,Retail Marijuana Store,Denver,Denver,08031,80210,2021-06-01,0
402R-00499,GUNNISON INVESTMENTS LLC,SOMA,Retail Marijuana Store,Gunnison,Gunnison,08051,81230,2021-06-01,0
402R-00501,THE GREEN SOLUTION LLC,,Retail Marijuana Store,Fort Collins,Larimer,08069,80524,2021-06-01,0
402R-00502,ACES PLACE LLC,,Retail Marijuana Store,Fort Collins,Larimer,08069,80524,2021-06-01,0
402R-00505,RFSCG LLC,ROOTSRX,Retail Marijuana Store,Gunnison,Gunnison,08051,81230,2021-06-01,0
402R-00508,SOUTHERN COLORADO CANNABIS CLUB LLC,,Retail Marijuana Store,Fort Garland,Costilla,08023,81133,2021-06-01,0
402R-00509,GUNNISON CANNABIS LLC,ROCKY MOUNTAIN CANNABIS,Retail Marijuana Store,Gunnison,Gunnison,08051,81230,2021-06-01,0
402R-00510,SIMPLY PURE COLORADO LLC,SIMPLY PURE,Retail Marijuana Store,Denver,Denver,08031,80211,2021-06-01,0
402R-00511,BELEAF WELLNESS CENTER LLC,,Retail Marijuana Store,San Luis,Costilla,08023,81152,2021-06-01,0
402R-00512,FIDDLERS GREEN LLC,,Retail Marijuana Store,Ridgway,Ouray,08091,81432,2021-06-01,0
402R-00515,SOUTHWEST ALTERNATIVE CARE LLC,KAYA,Retail Marijuana Store,Denver,Denver,08031,80204,2021-06-01,0
402R-00516,KIND CARE OF COLORADO LLC,KIND CARE OF COLORADO,Retail Marijuana Store,Fort Collins,Larimer,08069,80525,2021-06-01,0
402R-00519,RME GROUP LLC,AFFINITY,Retail Marijuana Store,Denver,Denver,08031,80220,2021-06-01,0
402R-00514,MESA ORGANICS LTD,STAR BUDS,Retail Marijuana Store,Pueblo,Pueblo,08101,81006,2021-06-01,0
402R-00524,CONCENTRATE LLC,WOLF PAC CANNABIS,Retail Marijuana Store,Pueblo West,Pueblo,08101,81007,2021-06-01,0
402R-00518,PARACHUTE GREEN JOINT LLC,THE GREEN JOINT,Retail Marijuana Store,Parachute,Garfield,08045,81635,2021-06-01,0
402R-00521,MISSKAT INC,FROSTY LEAF,Retail Marijuana Store,Gunnison,Gunnison,08051,81230,2021-06-01,0
402R-00528,BUDS LTD,,Retail Marijuana Store,Parachute,Garfield,08045,81635,2021-06-01,0
402R-00522,GREEN CROSS COLORADO LLC,THE TUMBLEWEED DISPENSARY,Retail Marijuana Store,Parachute,Garfield,08045,81635,2021-06-01,0
402R-00523,MAIN STREET CANNABIS,,Retail Marijuana Store,Trinidad,Las Animas,08071,81082,2021-06-01,0
402R-00531,PJ INVESTMENT GROUP LLC,WISE CANNABIS CO,Retail Marijuana Store,Fairplay,Park,08093,80440,2021-06-01,0
402R-00529,IGADI LTD,IGADI,Retail Marijuana Store,Northglenn,Adams,08001,80233,2021-06-01,0
402R-00533,THE COLORADO CANNABIS CABIN LLC,CABIN CANNABIS,Retail Marijuana Store,Gunnison,Gunnison,08051,81230,2021-06-01,0
402R-00526,THE CANNABIST CASTLE SUPERMARKET & DISPENSARY LOUNGE LLC,THE KIND CASTLE,Retail Marijuana Store,Parachute,Garfield,08045,81635,2021-06-01,0
402R-00530,DP & D HOLDINGS LLC,DURANGO REC ROOM,Retail Marijuana Store,Durango,La Plata,08067,81301,2021-06-01,0
402R-00535,ANCIENT ALTERNATIVES LLC,GREEN TREE MEDICINALS,Retail Marijuana Store,Longmont,Weld,08123,80504,2021-06-01,0
402R-00536,COSMIC LIGHT LLC,TWEEDLEAF,Retail Marijuana Store,Boulder,Boulder,08013,80303,2021-06-01,0
402R-00537,SYLS LLC,STRAWBERRY FIELDS,Retail Marijuana Store,Pueblo,Pueblo,08101,81008,2021-06-01,0
402R-00538,SAN JUAN STRAINS INC,,Retail Marijuana Store,Gunnison,Gunnison,08051,81230,2021-06-01,0
402R-00540,ROYAL ASSET MANAGEMENT LLC,DIEGO PELLICER,Retail Marijuana Store,Denver,Denver,08031,80219,2021-06-01,0
402R-00542,SAN JUAN STRAINS INC,,Retail Marijuana Store,Pagosa Springs,Archuleta,08007,81147,2021-06-01,0
402R-00547,GREEN WORLD EXPRESS INC,GREEN WORLD EXPRESS,Retail Marijuana Store,Antonito,Conejos,08021,81120,2021-06-01,0
402R-00543,HERBAL HEALTH LLC,LOCAL PRODUCT OF COLORADO,Retail Marijuana Store,Denver,Denver,08031,80204,2021-06-01,0
402R-00544,D & D CONSULTING INC,SOUTHWEST ALTERNATIVE CARE FOX ST,Retail Marijuana Store,Denver,Denver,08031,80223,2021-06-01,0
402R-00545,VERTS LLC,VERTICAL,Retail Marijuana Store,Fort Collins,Larimer,08069,80521,2021-06-01,0
402R-00550,TASTEBUDZ LLC,RED ROOTS,Retail Marijuana Store,Commerce City,Adams,08001,80022,2021-06-01,0
402R-00548,KTA LLC,THE LODGE,Retail Marijuana Store,Denver,Denver,08031,80219,2021-06-01,0
402R-00534,J and J ENTERPRISES INC,THE GREEN HOUSE,Retail Marijuana Store,Pagosa Springs,Archuleta,08007,81147,2021-06-01,0
402R-00553,HEALTH SERVICES LLC,GREEN DREAM CANNABIS,Retail Marijuana Store,Boulder,Boulder,08013,80301,2021-06-01,0
402R-00554,GREEN MEDICALS WELLNESS CENTER #5 LLC,SMOKEY'S,Retail Marijuana Store,Fort Collins,Larimer,08069,80525,2021-06-01,0
402R-00556,THREE RIVERS DEVELOPMENT LLC,THREE RIVERS DISPENSARY,Retail Marijuana Store,Pueblo,Pueblo,08101,81006,2021-06-01,0
402R-00559,SERENE WELLNESS V LLC,SERENE WELLNESS WINTER PARK LLC,Retail Marijuana Store,Winter Park,Grand,08049,80482,2021-06-01,0
402R-00564,EMERALD CITY WELLNESS LLC,EMERALD CITY,Retail Marijuana Store,Trinidad,Las Animas,08071,81082,2021-06-01,0
402R-00563,RINNIE RULEZ LLC,DOOBIE SISTERS BOTANICS,Retail Marijuana Store,Cortez,Montezuma,08083,81321,2021-06-01,0
402R-00567,GROW DISPENSARY INC,,Retail Marijuana Store,Pueblo West,Pueblo,08101,81007,2021-06-01,0
402R-00569,MAGNOLIA ROAD INC,MAGNOLIA ROAD CANNABIS COMPANY,Retail Marijuana Store,Trinidad,Las Animas,08071,81082,2021-06-01,0
402R-00574,HIGHWAY 40 LLC,BONFIRE CANNABIS COMPANY,Retail Marijuana Store,Tabernash,Grand,08049,80478,2021-06-01,0
402R-00571,RFSCED LLC,ROOTSRX,Retail Marijuana Store,Edwards,Eagle,08037,81632,2021-06-01,0
402R-00573,TITAN HEALTH LLC,TWEEDLEAF,Retail Marijuana Store,Denver,Denver,08031,80223,2021-06-01,0
402R-00577,SBUD LLC,STARBUDS,Retail Marijuana Store,Commerce City,Adams,08001,80022,2021-06-01,0
402R-00578,ONYX LAKE HOLDINGS LLC,GOLDEN NUGGET DISPENSARY,Retail Marijuana Store,Central City,Gilpin,08047,80427,2021-06-01,0
402R-00579,LIGHTSHADE LABS LLC,LIGHTSHADE,Retail Marijuana Store,Aurora,Arapahoe,08005,80014,2021-06-01,0
402R-00580,MONTEM PHARMLABS LIMITED,NORTHERN STANDARD,Retail Marijuana Store,Alma,Park,08093,80420,2021-06-01,0
402R-00582,THE GREEN SOLUTION LLC,CLEARANCE CANNABIS CO.,Retail Marijuana Store,Trinidad,Las Animas,08071,81082,2021-06-01,0
402R-00583,THE GREEN SOLUTION LLC,,Retail Marijuana Store,Trinidad,Las Animas,08071,81082,2021-06-01,0
402R-00581,1-11 LLC,ONE:ELEVEN,Retail Marijuana Store,Moffat,Saguache,08109,81143,2021-06-01,0
402R-00585,OSIRIS LLC,BEST DAY EVER,Retail Marijuana Store,Aspen,Pitkin,08097,81611,2021-06-01,0
402R-00587,HOBBY FARMS LLC,A CUT ABOVE,Retail Marijuana Store,Denver,Denver,08031,80210,2021-06-01,0
402R-00584,FREEDOM ROAD GARDEN MAIN LLC,FREEDOM ROAD,Retail Marijuana Store,Trinidad,Las Animas,08071,81082,2021-06-01,0
402R-00586,BG3 INVESTMENTS LLC,DRIFT,Retail Marijuana Store,Boulder,Boulder,08013,80301,2021-06-01,0
402R-00588,BIG RIVER BEND LLC,UNITY ROAD,Retail Marijuana Store,Boulder,Boulder,08013,80302,2021-06-01,0
402R-00596,CG INDUSTRY LLC,CROSS GENETICS,Retail Marijuana Store,Denver,Denver,08031,80216,2021-06-01,0
402R-00592,LEVELS IV INC,LEVELS IV INC,Retail Marijuana Store,Denver,Denver,08031,80212,2021-06-01,0
402R-00600,SMOKED COLORADO INC,MIGHTY TREE,Retail Marijuana Store,Denver,Denver,08031,80223,2021-06-01,0
402R-00601,BK HOLDINGS LLC,THE HERBAL CENTER,Retail Marijuana Store,Denver,Denver,08031,80210,2021-06-01,0
402R-00603,TWOG FEDERAL LLC,BUDDY BOY,Retail Marijuana Store,Denver,Denver,08031,80219,2021-06-01,0
402R-00606,AHAB LLC,STRAWBERRY FIELDS,Retail Marijuana Store,Trinidad,Las Animas,08071,81082,2021-06-01,0
402R-00602,TITAN HEALTH LLC,TWEEDLEAF,Retail Marijuana Store,Denver,Denver,08031,80205,2021-06-01,0
402R-00605,SILVER LAKE HOLDINGS LLC,ROOTED,Retail Marijuana Store,Trinidad,Las Animas,08071,81082,2021-06-01,0
402R-00590,JVT ENTERPRISES INC,COLORADO CANNABIS CONNECTION,Retail Marijuana Store,Denver,Jefferson,08059,80127,2021-06-01,0
402R-00613,YUMA WAY LLC,1136 YUMA,Retail Marijuana Store,Denver,Denver,08031,80204,2021-06-01,0
402R-00614,KTA LLC,THE LODGE,Retail Marijuana Store,Denver,Denver,08031,80205,2021-06-01,0
402R-00615,FROZEN SMOKE DISPENSARY LLC,FROZEN SMOKE DISPENSARY,Retail Marijuana Store,Gunnison,Gunnison,08051,81230,2021-06-01,0
402R-00616,THE UNDERGROUND STATION LLC,,Retail Marijuana Store,Trinidad,Las Animas,08071,81082,2021-06-01,0
402R-00617,RJJ TRINIDAD LLC,NATIVE ROOTS TRINIDAD,Retail Marijuana Store,Trinidad,Las Animas,08071,81082,2021-06-01,0
402R-00622,SACRED VALLEY FARMACY LLC,PRIMO,Retail Marijuana Store,Villa Grove,Saguache,08109,81155,2021-06-01,0
402R-00640,FUTUREVISION 2020 LLC,MEDICINE MAN THORNTON,Retail Marijuana Store,Thornton,Adams,08001,80260,2021-06-01,0
402R-00631,DP RETAIL 102 LLC,GREEN DRAGON,Retail Marijuana Store,Thornton,Adams,08001,80602,2021-06-01,0
402R-00633,ROCKY ROAD REMEDIES LLC,ROCKY ROAD THORNTON,Retail Marijuana Store,Thornton,Adams,08001,80233,2021-06-01,0
402R-00645,E&R RETAIL LLC,THE OTHER PLACE IS GREENER,Retail Marijuana Store,Trinidad,Las Animas,08071,81082,2021-06-01,0
402R-00646,SUMMIT WELLNESS,DENREC DENVER RECREATIONAL DISPENSARY,Retail Marijuana Store,Denver,Denver,08031,80223,2021-06-01,0
402R-00652,TDM LLC,TREES,Retail Marijuana Store,Englewood,Arapahoe,08005,80110,2021-06-01,0
402R-00650,NUVUE PHARMA LLC,,Retail Marijuana Store,Pueblo,Pueblo,08101,81008,2021-06-01,0
402R-00654,THE GREEN SOLUTION LLC,,Retail Marijuana Store,Glendale,Denver,08031,80246,2021-06-01,0
402R-00659,NATURES KISS CANNABIS SERVICES HEALTH & WELLNESS LLC,NATURES KISS,Retail Marijuana Store,Englewood,Arapahoe,08005,80113,2021-06-01,0
402R-00655,LIVWELL VIII LLC,LIVWELL,Retail Marijuana Store,Commerce City,Adams,08001,80022,2021-06-01,0
402R-00656,MJM HOLDINGS LIMITED,STICKY FINGERZ,Retail Marijuana Store,Denver,Denver,08031,80205,2021-06-01,0
402R-00666,THE GREEN SOLUTION LLC,,Retail Marijuana Store,Aurora,Arapahoe,08005,80015,2021-06-01,0
402R-00667,JOE CAL ENTERPRISES INC,PAGOSA CRAFT,Retail Marijuana Store,Pagosa Springs,Archuleta,08007,81147,2021-06-01,0
402R-00664,3B FEDERAL1 LLC,BUDDY BOY,Retail Marijuana Store,Denver,Denver,08031,80219,2021-06-01,0
402R-00662,ECO GREEN GROW LLC,VERDE NATURAL,Retail Marijuana Store,Boulder,Boulder,08013,80302,2021-06-01,0
402R-00663,DP RETAIL 110 LLC,GREEN DRAGON,Retail Marijuana Store,Telluride,San Miguel,08113,81435,2021-06-01,0
402R-00673,COLORADO GOLD LLP,STICKY ICKY'S,Retail Marijuana Store,Pueblo,Pueblo,08101,81005,2021-06-01,0
402R-00674,COLORADO PRODUCT SERVICES LLC,DOUBLE BLACK,Retail Marijuana Store,Glenwood Springs,Garfield,08045,81601,2021-06-01,0
402R-00668,SEVEN-ONE-NINE LLC,COOKIES PUEBLO,Retail Marijuana Store,Pueblo,Pueblo,08101,81005,2021-06-01,0
402R-00676,GREENER PASTURE COMPASSION CENTER LLC,VERDE NATURAL,Retail Marijuana Store,Denver,Denver,08031,80220,2021-06-01,0
402R-00670,THE GREEN SOLUTION LLC,,Retail Marijuana Store,Pueblo,Pueblo,08101,81004,2021-06-01,0
402R-00671,RJL ASSET MANAGEMENT LLC,THE SPOT 420,Retail Marijuana Store,Pueblo,Pueblo,08101,81008,2021-06-01,0
402R-00672,LIVWELL V LLC,LIVWELL,Retail Marijuana Store,Pueblo,Pueblo,08101,81004,2021-06-01,0
402R-00677,LBW CONSULTING GROUP LLC,SEED & SMITH,Retail Marijuana Store,Denver,Denver,08031,80239,2021-06-01,0
402R-00678,IGADI LTD,IGADI,Retail Marijuana Store,Lafayette,Boulder,08013,80026,2021-06-01,0
402R-00679,GRANT CO LLC,SOUTH PARK FARMA,Retail Marijuana Store,Grant,Park,08093,80448,2021-06-01,0
402R-00682,THE 404 LLC,,Retail Marijuana Store,Pueblo,Pueblo,08101,81003,2021-06-01,0
402R-00684,LIGHTSHADE LABS LLC,LIGHTSHADE,Retail Marijuana Store,Federal Heights,Adams,08001,80260,2021-06-01,0
402R-00688,CGFR GROUP INC,KRYSTALEAVES,Retail Marijuana Store,Commerce City,Adams,08001,80022,2021-06-01,0
402R-00683,DURANGO ORGANICS LLP,,Retail Marijuana Store,Durango,La Plata,08067,81303,2021-06-01,0
402R-00687,BROW ACQUISITIONS FEDERAL HEIGHTS LLC,XCLUSIVE CANNABIS,Retail Marijuana Store,Federal Heights,Adams,08001,80260,2021-06-01,0
402R-00689,NUVUE PHARMA LLC,,Retail Marijuana Store,Trinidad,Las Animas,08071,81082,2021-06-01,0
402R-00691,SBUD LLC,STARBUDS,Retail Marijuana Store,Federal Heights,Adams,08001,80260,2021-06-01,0
402R-00685,HQ LANDING LLC,HIGH Q PARACHUTE,Retail Marijuana Store,Parachute,Garfield,08045,81635,2021-06-01,0
402R-00694,BUDS LLC,,Retail Marijuana Store,De Beque,Mesa,08077,81630,2021-06-01,0
402R-00697,GREEN SATIVA LLC,,Retail Marijuana Store,Federal Heights,Adams,08001,80260,2021-06-01,0
402R-00698,PC HOLDINGS INC,CANNA CITY,Retail Marijuana Store,Trinidad,Las Animas,08071,81082,2021-06-01,0
402R-00692,CONSCIOUS CONNEXION LLC,HIGHER ELEVATION,Retail Marijuana Store,Crestone,Saguache,08109,81131,2021-06-01,0
402R-00693,TOKIN TIPI LLC,,Retail Marijuana Store,Parachute,Garfield,08045,81635,2021-06-01,0
402R-00690,EARTH SOLUTIONS INC,CANNA CABINET INC,Retail Marijuana Store,Pueblo,Pueblo,08101,81004,2021-06-01,0
402R-00695,COLORADO ALTERNATIVE HEALTH CARE LTD,COLORADO WEEDERY,Retail Marijuana Store,Palisade,Mesa,08077,81526,2021-06-01,0
402R-00696,RJJ TOWER LLC,NATIVE ROOTS DENVER AIRPORT,Retail Marijuana Store,Denver,Denver,08031,80249,2021-06-01,0
402R-00699,NORTHWEST CANNABIS INC,ROCKY MOUNTAIN CANNABIS,Retail Marijuana Store,Dinosaur,Moffat,08081,81610,2021-06-01,0
402R-00700,THE GREEN SOLUTION LLC,,Retail Marijuana Store,Denver,Denver,08031,80202,2021-06-01,0
402R-00701,SBUD LLC,STAR BUDS,Retail Marijuana Store,Niwot,Boulder,08013,80503,2021-06-01,0
402R-00702,SOUTH PUEBLO LLC,COLORADO CANNABIS EXCHANGE,Retail Marijuana Store,Pueblo,Pueblo,08101,81004,2021-06-01,0
402R-00703,COMPLETE RELEAF CO LLC,COMPLETE RELEAF,Retail Marijuana Store,Lafayette,Boulder,08013,80026,2021-06-01,0
402R-00704,TUMBLEWEED DE BEQUE LLC,TUMBLEWEED DE BEQUE ,Retail Marijuana Store,De Beque,Mesa,08077,81630,2021-06-01,0
402R-00705,HQ SOPRIS LLC,HIGH Q CARBONDALE,Retail Marijuana Store,Carbondale,Garfield,08045,81623,2021-06-01,0
402R-00711,THC2 INC,THE HAPPY CAMPER CANNABIS COMPANY,Retail Marijuana Store,Palisade,Mesa,08077,81526,2021-06-01,0
402R-00706,BLEND LLC,,Retail Marijuana Store,Mancos,Montezuma,08083,81328,2021-06-01,0
402R-00713,STEM BEACH LLC,THE CANNABIS DEPOT,Retail Marijuana Store,Pueblo,Pueblo,08101,81008,2021-06-01,0
402R-00708,SBUD LLC,STAR BUDS,Retail Marijuana Store,Longmont,Boulder,08013,80503,2021-06-01,0
402R-00712,FRONT RANGE BOTANICAL LLC,SOUTH PARK FARMA,Retail Marijuana Store,Commerce City,Adams,08001,80022,2021-06-01,0
402R-00715,LS BOUTIQUES LLC,LUCY SKY CANNABIS BOUTIQUE,Retail Marijuana Store,Sheridan,Arapahoe,08005,80110,2021-06-01,0
402R-00707,CO & RO PARTNERS LLC,EUFLORA,Retail Marijuana Store,Longmont,Boulder,08013,80501,2021-06-01,0
402R-00716,CHIMERA STRATEGIES INC,TERRAPIN CARE STATION,Retail Marijuana Store,Longmont,Boulder,08013,80501,2021-06-01,0
402R-00717,CHRONIC THERAPY-CORTEZ LLC,,Retail Marijuana Store,Cortez,Montezuma,08083,81321,2021-06-01,0
402R-00730,YUMA WAY LLC,TWIN PEAKS DISPENSARY,Retail Marijuana Store,Longmont,Boulder,08013,80501,2021-06-01,0
402R-00729,RIA HOLDINGS LIMITED,LAUGHING GRASS,Retail Marijuana Store,Denver,Denver,08031,80223,2021-06-01,0
402R-00718,THE GREEN SOLUTION LLC,,Retail Marijuana Store,Longmont,Boulder,08013,80501,2021-06-01,0
402R-00724,MEDICINE MAN LONGMONT LLC,MEDICINE MAN LONGMONT,Retail Marijuana Store,Longmont,Boulder,08013,80501,2021-06-01,0
402R-00737,THE GREEN SOLUTION LLC,CLEARANCE CANNABIS CO,Retail Marijuana Store,Sheridan,Arapahoe,08005,80110,2021-06-01,0
402R-00739,10232 LLC,PROVISIONS,Retail Marijuana Store,Walsenburg,Huerfano,08055,81089,2021-06-01,0
402R-00734,A&A INVESTMENTS LLC,ECLIPSE CANNABIS COMPANY,Retail Marijuana Store,Boulder,Boulder,08013,80304,2021-06-01,0
402R-00735,NATURES HERBS & WELLNESS CENTER III LLC,NATURES HERBS & WELLNESS CENTER III,Retail Marijuana Store,Milliken,Weld,08123,80543,2021-06-01,0
402R-00733,MHFS LLC,GOOD CHEMISTRY,Retail Marijuana Store,Denver,Denver,08031,80211,2021-06-01,0
402R-00725,VIRTUAL MARKETING LLC,MAGGIE'S FARM,Retail Marijuana Store,Pueblo,Pueblo,08101,81008,2021-06-01,0
402R-00744,KARMACEUTICALS LLC,KARMACEUTICALS ,Retail Marijuana Store,Denver,Denver,08031,80223,2021-06-01,0
402R-00751,THREE RIVERS DEVELOPMENT LLC,THREE RIVERS DISPENSARY,Retail Marijuana Store,Pueblo,Pueblo,08101,81007,2021-06-01,0
402R-00742,THE GREEN SOLUTION LLC,,Retail Marijuana Store,Glenwood Springs,Garfield,08045,81601,2021-06-01,0
402R-00743,THE GREEN SOLUTION LLC,,Retail Marijuana Store,Sheridan,Arapahoe,08005,80110,2021-06-01,0
402R-00750,SUN HOUSE CB LLC,SUN HOUSE,Retail Marijuana Store,Crested Butte,Gunnison,08051,81224,2021-06-01,0
402R-00752,ASPEN GREEN JOINT LLC,THE GREEN JOINT,Retail Marijuana Store,Aspen,Pitkin,08097,81611,2021-06-01,0
402R-00754,PLAIN JANE ORGANICS LLC,,Retail Marijuana Store,Colorado City,Pueblo,08101,81019,2021-06-01,0
402R-00746,DINO DISPENSARY LLC,DINO DISPENSARY,Retail Marijuana Store,Dinosaur,Moffat,08081,81610,2021-06-01,0
402R-00747,GOLD & T LLC,THE HEALTH CENTER,Retail Marijuana Store,Boulder,Boulder,08013,80302,2021-06-01,0
402R-00749,WHISPER CONSULTING GROUP LLC,ELEVATED,Retail Marijuana Store,Longmont,Boulder,08013,80501,2021-06-01,0
402R-00755,ROCKY FARMS LLC,ROCKY FARMS,Retail Marijuana Store,Rocky Ford,Otero,08089,81067,2021-06-01,0
402R-00757,SISTEM SHERIDAN LLC,SILVER STEM FINE CANNABIS,Retail Marijuana Store,Sheridan,Arapahoe,08005,80110,2021-06-01,0
402R-00759,BOLDER VENTURES LTD,THE PEACEFUL CHOICE,Retail Marijuana Store,Boulder,Boulder,08013,80303,2021-06-01,0
402R-00761,THE GENETIC LOCKER INC,TERRAPIN CARE STATION,Retail Marijuana Store,Boulder,Boulder,08013,80303,2021-06-01,0
402R-00763,CORRIDOR 70 LLC,EVERBLOOM,Retail Marijuana Store,Wheat Ridge,Jefferson,08059,80033,2021-06-01,0
402R-00762,DINO TREATS LLC,DINO TREATS,Retail Marijuana Store,Dinosaur,Moffat,08081,81610,2021-06-01,0
402R-00758,KGBI COLORADO LLC,SPARK DISPENSARY ,Retail Marijuana Store,Denver,Denver,08031,80216,2021-06-01,0
402R-00765,MESA ORGANICS III LTD,STAR BUDS,Retail Marijuana Store,Rocky Ford,Otero,08089,81067,2021-06-01,0
402R-00774,N&G ENTERPRISES LLC,LOUD,Retail Marijuana Store,Commerce City,Adams,08001,80022,2021-06-01,0
402R-00766,LIVWELL IX LLC,LIVWELL,Retail Marijuana Store,Federal Heights,Adams,08001,80260,2021-06-01,0
402R-00768,SAN JUAN RETAIL LLC,CANNAFARMER FARM STORE,Retail Marijuana Store,Silverton,San Juan,08111,81433,2021-06-01,0
402R-00769,DP RETAIL 107 LLC,GREEN DRAGON COLORADO,Retail Marijuana Store,Denver,Denver,08031,80203,2021-06-01,0
402R-00770,ORION BUSINESS INVESTMENTS LLC,WILD WILD WEED,Retail Marijuana Store,Ordway,Crowley,08025,81063,2021-06-01,0
402R-00771,NATURAL ALTERNATIVES FOR LIFE LLC,GREEN TREE MEDICINALS,Retail Marijuana Store,Berthoud,Larimer,08069,80513,2021-06-01,0
402R-00764,PERSONALIZED ORGANIC TREATMENTS LLC,CANNA BOTICA,Retail Marijuana Store,Denver,Denver,08031,80223,2021-06-01,0
402R-00787,MAMMOTH DURANGO LLC,MAMMOTH FARMS,Retail Marijuana Store,Durango,La Plata,08067,81301,2021-06-01,0
402R-00772,IGADI LTD,IGADI,Retail Marijuana Store,Lyons,Boulder,08013,80540,2021-06-01,0
402R-00775,LIVWELL X LLC,LIVWELL,Retail Marijuana Store,Berthoud,Larimer,08069,80513,2021-06-01,0
402R-00760,CANNA COMPANY II,CANNACO II,Retail Marijuana Store,Walsenburg,Huerfano,08055,81089,2021-06-01,0
402R-00789,BMG PAGOSA 266 LLC,SMOKE RINGS,Retail Marijuana Store,Pagosa Springs,Archuleta,08007,81147,2021-06-01,0
402R-00779,NUVUE PHARMA LLC,,Retail Marijuana Store,Cortez,Montezuma,08083,81321,2021-06-01,0
402R-00806,LIVWELL IV LLC,LIVWELL,Retail Marijuana Store,Pueblo,Pueblo,08101,81008,2021-06-01,0
402R-00792,MESA ORGANICS II LTD,STAR BUDS,Retail Marijuana Store,Ordway,Crowley,08025,81063,2021-06-01,0
402R-00781,JW COLORADO LLC,TWEEDLEAF,Retail Marijuana Store,Trinidad,Las Animas,08071,81082,2021-06-01,0
402R-00782,CCW HOLDINGS INC ,CANNA CITY,Retail Marijuana Store,Walsenburg,Huerfano,08055,81089,2021-06-01,0
402R-00783,PEAK 6010 LLC,ELEVATE 6010,Retail Marijuana Store,Trinidad,Las Animas,08071,81082,2021-06-01,0
402R-00784,CANASOL INC ,ROCKY MOUNTAIN CANNABIS,Retail Marijuana Store,Trinidad,Las Animas,08071,81082,2021-06-01,0
402R-00777,SOFA KING MEDICINAL WELLNESS PRODUCTS LLC,SKM,Retail Marijuana Store,Dumont,Clear Creek,08019,80436,2021-06-01,0
402R-00786,COLORADOS KINDEST LLC,,Retail Marijuana Store,Del Norte,Rio Grande,08105,81132,2021-06-01,0
402R-00790,RINO SUPPLY CO INC,RINO SUPPLY COMPANY,Retail Marijuana Store,Denver,Denver,08031,80205,2021-06-01,0
402R-00791,HIGH DEMAND LLC,TERPS,Retail Marijuana Store,Pueblo West,Pueblo,08101,81007,2021-06-01,0
402R-00794,SILVERPEAK CORP,THE DAB BY SILVERPEAK,Retail Marijuana Store,Louisville,Boulder,08013,80027,2021-06-01,0
402R-00797,HIGH OCTANE LLC,,Retail Marijuana Store,Pueblo,Pueblo,08101,81004,2021-06-01,0
402R-00799,HERBAL OUTFITTERS LLC,THE GREEN JOINT,Retail Marijuana Store,Rifle,Garfield,08045,81650,2021-06-01,0
402R-00803,HARVESTS LLC ,HARVEST ,Retail Marijuana Store,Pueblo,Pueblo,08101,81008,2021-06-01,0
402R-00796,ASPEN FOREST LLC,MR. G,Retail Marijuana Store,Denver,Denver,08031,80239,2021-06-01,0
402R-00798,KINFOLK FARMS LLC,KINFOLK FARMS,Retail Marijuana Store,Durango,La Plata,08067,81301,2021-06-01,0
402R-00804,BUFFALO BIOTECH LLC ,DALWHINNIE FARMS,Retail Marijuana Store,Aspen,Pitkin,08097,81611,2021-06-01,0
402R-00808,YUMA WAY LLC,BERKELEY DISPENSARY,Retail Marijuana Store,Arvada,Jefferson,08059,80002,2021-06-01,0
402R-00809,BGOOD VENTURES LLC,BGOOD APOTHECARY,Retail Marijuana Store,Englewood,Arapahoe,08005,80110,2021-06-01,0
402R-00810,RIFLE REMEDIES LLC,GREEN CROSS RIFLE,Retail Marijuana Store,Rifle,Garfield,08045,81650,2021-06-01,0
402R-00814,GREEN CROSS LLC ,GREEN CROSS OF CHERRY CREEK,Retail Marijuana Store,Denver,Denver,08031,80224,2021-06-01,0
402R-00807,JW COLORADO LLC,TWEEDLEAF,Retail Marijuana Store,Denver,Adams,08001,80221,2021-06-01,0
402R-00813,THE CANNABIS DEPOT PUEBLO SOUTH LLC,,Retail Marijuana Store,Pueblo,Pueblo,08101,81003,2021-06-01,0
402R-00815,TELLURIDE GREEN ROOM LLC,NATURITA GREEN ROOM,Retail Marijuana Store,Naturita,Montrose,08085,81422,2021-06-01,0
402R-00816,SILVERPEAK CORP,THE DAB BY SILVERPEAK,Retail Marijuana Store,Louisville,Boulder,08013,80027,2021-06-01,0
402R-00811,DABBINGTON LLC,DABBINGTON,Retail Marijuana Store,Log Lane Village,Morgan,08087,80705,2021-06-01,0
402R-00817,SISTEM COMMERCE CITY LLC,SILVER STEM FINE CANNABIS,Retail Marijuana Store,Commerce City,Adams,08001,80022,2021-06-01,0
402R-00818,SBUD LLC,STARBUDS,Retail Marijuana Store,Mountain View,Denver,08031,80212,2021-06-01,0
402R-00822,COLORADO DISTRIBUTING LLC,THE DISPO,Retail Marijuana Store,Pueblo West,Pueblo,08101,81007,2021-06-01,0
402R-00826,HHCB LLC,HARVEST HOUSE CRESTED BUTTE,Retail Marijuana Store,Crested Butte,Gunnison,08051,81224,2021-06-01,0
402R-00821,MAGNOLIA ROAD INC,SUGARLOAF DISPENSARY,Retail Marijuana Store,Trinidad,Las Animas,08071,81082,2021-06-01,0
402R-00827,IGADI LTD,IGADI,Retail Marijuana Store,Louisville,Boulder,08013,80027,2021-06-01,0
402R-00832,HQ MAMMOTH LLC,High Q Snowmass Village,Retail Marijuana Store,Snowmass Village,Pitkin,08097,81615,2021-06-01,0
402R-00829,JWJ INC,THE GREEN HOUSE DURANGO,Retail Marijuana Store,Durango,La Plata,08067,81301,2021-06-01,0
402R-00831,EXIT 243 LLC ,DISPENSARY EXIT 243,Retail Marijuana Store,Idaho Springs,Clear Creek,08019,80452,2021-06-01,0
402R-00836,YUMA WAY LLC,CANNA CITY ,Retail Marijuana Store,Commerce City,Adams,08001,80022,2021-06-01,0
402R-00828,NUVUE PHARMA LLC,,Retail Marijuana Store,Gunnison,Gunnison,08051,81230,2021-06-01,0
402R-00830,CHETTY CONSULTING LLC,WILD WILD WEED,Retail Marijuana Store,Las Animas,Bent,08011,81054,2021-06-01,0
402R-00835,THE CANNABIS DEPOT III LLC,,Retail Marijuana Store,Pueblo,Pueblo,08101,81008,2021-06-01,0
402R-00824,BG3 INVESTMENTS LLC,DRIFT,Retail Marijuana Store,Boulder,Boulder,08013,80303,2021-06-01,0
402R-00825,SOUTHWEST TRADING CORP,ROCKY MOUNTAIN CANNABIS,Retail Marijuana Store,Naturita,Montrose,08085,81422,2021-06-01,0
402R-00837,WLCO LLC,THE REPUBLIC,Retail Marijuana Store,Boulder,Boulder,08013,80303,2021-06-01,0
402R-00839,ROCKYS BEST LLC,,Retail Marijuana Store,Rocky Ford,Otero,08089,81067,2021-06-01,0
402R-00841,MESA ORGANICS IV LTD,STAR BUDS,Retail Marijuana Store,Las Animas,Bent,08011,81054,2021-06-01,0
402R-00840,DOWN VALLEY HYH LLC,GOODPEOPLE,Retail Marijuana Store,Basalt,Eagle,08037,81621,2021-06-01,0
402R-00846,OG MEDICINALS LLC,,Retail Marijuana Store,Denver,Denver,08031,80239,2021-06-01,0
402R-00838,IGADI LTD,IGADI,Retail Marijuana Store,Granby,Grand,08049,80446,2021-06-01,0
402R-00843,NUVUE PHARMA LLC,,Retail Marijuana Store,Pueblo,Pueblo,08101,81006,2021-06-01,0
402R-00842,C1B TRUE ORGANICS LLC,,Retail Marijuana Store,Walsenburg,Huerfano,08055,81089,2021-06-01,0
402R-00847,5 EYED JACK LLC,,Retail Marijuana Store,Louisville,Boulder,08013,80027,2021-06-01,0
402R-00848,BETTER GREEN LLC,,Retail Marijuana Store,Las Animas,Bent,08011,81054,2021-06-01,0
402R-00850,GLENWOOD SPRINGS INVESTMENTS LLC,THE DISPENSARY,Retail Marijuana Store,Glenwood Springs,Garfield,08045,81601,2021-06-01,0
402R-00851,LIGHTSHADE LABS LLC,LIGHTSHADE,Retail Marijuana Store,Denver,Denver,08031,80239,2021-06-01,0
402R-00849,MC2 BOULDER LLC,MARQUIS CANNABIS ,Retail Marijuana Store,Boulder,Boulder,08013,80302,2021-06-01,0
402R-00855,KIND GLENWOOD LLC ,THE KIND CASTLE ,Retail Marijuana Store,Glenwood Springs,Garfield,08045,81601,2021-06-01,0
402R-00852,KIND CRAIG LLC,THE KIND CASTLE,Retail Marijuana Store,Craig,Moffat,08081,81625,2021-06-01,0
402R-00853,KIND NEDERLAND LLC,THE KIND CASTLE ,Retail Marijuana Store,Nederland,Boulder,08013,80466,2021-06-01,0
402R-00856,CRAIG CANNABIS INC ,ROCKY MOUNTAIN CANNABIS,Retail Marijuana Store,Craig,Moffat,08081,81625,2021-06-01,0
402R-00858,PHOENIX CORP,MANA CANNABIS SUPPLY CO,Retail Marijuana Store,Denver,Denver,08031,80204,2021-06-01,0
402R-00861,GM BRYANT LLC ,GOLDEN MEDS ,Retail Marijuana Store,Denver,Denver,08031,80204,2021-06-01,0
402R-00860,8058 LLC,MIGHTY TREE,Retail Marijuana Store,Denver,Denver,08031,80211,2021-06-01,0
402R-00862,HIGH PLAINZ STRAINS III LLC,,Retail Marijuana Store,Sedgwick,Sedgwick,08115,80749,2021-06-01,0
402R-00864,PEAK NORTH HOLDINGS GROUP LLC,PEAK DISPENSARY,Retail Marijuana Store,Sedgwick,Sedgwick,08115,80749,2021-06-01,0
402R-00866,GOWER HADLEY ENTERPRISES LLC,HONEY BEAR APOTHECARY,Retail Marijuana Store,Craig,Moffat,08081,81625,2021-06-01,0
402R-00863,BOULDER TREATMENTS LLC,THE FARM EXPRESS,Retail Marijuana Store,Boulder,Boulder,08013,80303,2021-06-01,0
402R-00865,TUMBLEWEED EAGLE LLC,,Retail Marijuana Store,Eagle,Eagle,08037,81631,2021-06-01,0
402R-00868,MWCS LLC,,Retail Marijuana Store,Hayden,Routt,08107,81639,2021-06-01,0
402R-00867,KIND EATERY LLC,THE KIND CASTLE ,Retail Marijuana Store,Craig,Moffat,08081,81625,2021-06-01,0
402R-00870,MAGGIES FARM LLC,MAGGIE'S FARM,Retail Marijuana Store,Las Animas,Bent,08011,81054,2021-06-01,0
402R-00871,BROW 1 LLC,XCLUSIVE CANNABIS,Retail Marijuana Store,Denver,Denver,08031,80207,2021-06-01,0
402R-00869,PHYSICIAN PREFERRED PRODUCTS LLC,DOCS APOTHECARY,Retail Marijuana Store,Denver,Denver,08031,80216,2021-06-01,0
402R-00872,GREEN GARDENS LLC,GREEN FIELDS,Retail Marijuana Store,Denver,Denver,08031,80223,2021-06-01,0
402R-00875,KIND COMMERCE LLC,THE KIND CASTLE,Retail Marijuana Store,Commerce City,Adams,08001,80022,2021-06-01,0
402R-00876,TUMBLEWEED CRAIG LLC,,Retail Marijuana Store,Craig,Moffat,08081,81625,2021-06-01,0
402R-00885,ELEVATIONS 7888 LLC,7884,Retail Marijuana Store,Antonito,Conejos,08021,81120,2021-06-01,0
402R-00879,STEM BEACH DISPENSARY LLC,DOCTORS ORDERS,Retail Marijuana Store,Pueblo,Pueblo,08101,81004,2021-06-01,0
402R-00880,HIGH WAYS CO LLC,,Retail Marijuana Store,Craig,Moffat,08081,81625,2021-06-01,0
402R-00877,AGRICULTURAL ADVANTAGES LLC,LUCKY MONKEY BUDS II,Retail Marijuana Store,Las Animas,Bent,08011,81054,2021-06-01,0
402R-00882,A&B HOLDINGS LLC,PURE FIRE CANNABIS,Retail Marijuana Store,Gunnison,Gunnison,08051,81230,2021-06-01,0
402R-00884,STATION 2 LLC,,Retail Marijuana Store,Denver,Denver,08031,80210,2021-06-01,0
402R-00890,THE TREE LINE LLC,THE TREE LINE,Retail Marijuana Store,Keystone,Summit,08117,80435,2021-06-01,0
402R-00883,KIND GUNNISON LLC,THE KIND CASTLE MARIJUANA SUPERSTORE,Retail Marijuana Store,Gunnison,Gunnison,08051,81230,2021-06-01,0
402R-00887,GM 2280 LLC,GOLDEN MEDS,Retail Marijuana Store,Denver,Denver,08031,80231,2021-06-01,0
402R-00888,KIND COLONA LLC,THE KIND CASTLE,Retail Marijuana Store,Montrose,Montrose,08085,81403,2021-06-01,0
402R-00889,SUMMIT WELLNESS,DENREC DENVER RECREATIONAL DISPENSARY,Retail Marijuana Store,Lyons,Boulder,08013,80503,2021-06-01,0
402R-00892,MEDICAL CANNABIS COLORADO LLC,CURE COLORADO,Retail Marijuana Store,Denver,Denver,08031,80222,2021-06-01,0
402R-00891,COLORADO CANNABIS SERVICES LLC,GREEN CROSS CAREGIVERS,Retail Marijuana Store,Denver,Denver,08031,80231,2021-06-01,0
402R-00895,FRESH BAKED LLC,FRESH BAKED,Retail Marijuana Store,Boulder,Boulder,08013,80302,2021-06-01,0
402R-00893,BCC LLC,BONFIRE CANNABIS COMPANY,Retail Marijuana Store,Denver,Denver,08031,80216,2021-06-01,0
402R-00894,GOOD VIBES ROCKY MOUNTAIN DISPENSARY NO 1 LLC,GOOD VIBES ROCKY MOUNTAIN DISPENSARY,Retail Marijuana Store,Craig,Moffat,08081,81625,2021-06-01,0
402R-00897,ASCEND LITTLETON LLC,ASCEND CANNABIS CO,Retail Marijuana Store,Littleton,Arapahoe,08005,80120,2021-06-01,0
402R-00898,I & S LLC,SILVER STEM FINE CANNABIS,Retail Marijuana Store,Littleton,Arapahoe,08005,80120,2021-06-01,0
402R-00900,D & D CONSULTING INC,KAYA CANNABIS ,Retail Marijuana Store,Lakewood,Jefferson,08059,80228,2021-06-01,0
402R-00896,PI NORTH SHERIDAN LLC,,Retail Marijuana Store,Denver,Jefferson,08059,80226,2021-06-01,0
402R-00899,COLORADO MEDICAL INVESTMENTS LLC,THE DISPENSARY ,Retail Marijuana Store,Denver,Denver,08031,80211,2021-06-01,0
402R-00901,HEALING HOUSE LAKEWOOD LLC,ASCEND CANNABIS CO,Retail Marijuana Store,Lakewood,Jefferson,08059,80226,2021-06-01,0
402R-00902,BORDER BUDS LLC,BORDER BUDS,Retail Marijuana Store,Durango,La Plata,08067,81303,2021-06-01,0
402R-00903,COMPASSIONATE ENTERPRISES LLC,THE CLINIC WADSWORTH,Retail Marijuana Store,Lakewood,Jefferson,08059,80235,2021-06-01,0
402R-00904,GM LAKEWOOD LLC,GOLDEN MEDS,Retail Marijuana Store,Lakewood,Jefferson,08059,80215,2021-06-01,0
402R-00905,ALPINE WELLNESS LLC,ALPINE WELLNESS,Retail Marijuana Store,Norwood,San Miguel,08113,81423,2021-06-01,0
402R-00906,YUMA UNIQUE LLC,,Retail Marijuana Store,Denver,Denver,08031,80210,2021-06-01,0
402R-00908,MAGIC CITY FARMS 2 LLC,MAGIC CITY CANNABIS,Retail Marijuana Store,Denver,Denver,08031,80239,2021-06-01,0
402R-00907,UNIQUE CULTIVATIONS LLC,,Retail Marijuana Store,Commerce City,Adams,08001,80022,2021-06-01,0
402R-00909,HASH FACTORY LLC,,Retail Marijuana Store,Center,Rio Grande,08105,81125,2021-06-01,0
402R-00910,ZENGOLDS LLC ,None,Retail Marijuana Store,Fort Collins,Larimer,08069,80525,2021-06-01,0
402R-00911,THE SACRED BLEND LLC,THE SACRED BLEND,Retail Marijuana Store,Moffat,Saguache,08109,81143,2021-06-01,0
402R-00912,SANDERS ENTERPRISE LLC,GREEN APEX,Retail Marijuana Store,Sugar City,Crowley,08025,81076,2021-06-01,0
402R-00913,LIBERTYS LLC,PINNERZ RECREATIONAL,Retail Marijuana Store,Hooper,Alamosa,08003,81136,2021-06-01,0
402R-00914,ASCEND II LLC,ASCEND II,Retail Marijuana Store,Buena Vista,Chaffee,08015,81211,2021-06-01,0
